Name,Latitude,Longitude,Type,subtype1,subtype2,City,Address,Link,,
ACME Markets,41.1944643,-74.4834879,grocery,y,y,Vernon NJ,530 Rt 515 Unit 1  Vernon Township,https://www.google.com/maps/place/?q=place_id:ChIJRTRy2Og9w4kR15h1H6PfjXc,,
ALDI,35.1642809,-83.371971,grocery,y,y,Franklin TN,1320 Siler Road  Franklin,https://www.google.com/maps/place/?q=place_id:ChIJK5WHoPolWYgR7dbI4Ep38VY,,
ALDI,40.1966451,-77.1561979,grocery,y,y,Carlisle PA,250 Westminster Drive  Carlisle,https://www.google.com/maps/place/?q=place_id:ChIJYROggq7hyIkRcBYT9FYPJvk,,
ALDI,40.56140009999999,-76.0085898,grocery,y,y,Hamburg PA,15 Wilderness Trail  Hamburg,https://www.google.com/maps/place/?q=place_id:ChIJ93mVrYLdxYkRDf0tkTX8J1M,,
ALDI,41.3122783,-74.1331702,grocery,y,y,Harriman NY,45 Centre Drive  Central Valley,https://www.google.com/maps/place/?q=place_id:ChIJvUFMSA7XwokR8cRs7yHD-Mw,,
ALDI,42.89536539999999,-73.2009199,grocery,y,y,Bennington VT,10 Kocher Drive  Bennington,https://www.google.com/maps/place/?q=place_id:ChIJpx_I7Y2W4IkRvfONzBbGPqM,,
ALDI,43.5901847,-72.9696106,grocery,y,y,Rutland VT,263 South Main Street  Rutland,https://www.google.com/maps/place/?q=place_id:ChIJdZiwIGAk4IkRRK0mkkLaeSk,,
BG's Value Market of Pine Grove,40.5566093,-76.3783209,grocery,y,y,Pine Grove PA,24 Pleasant Valley Road  Pine Grove,https://www.google.com/maps/place/?q=place_id:ChIJIbXIK0z5xYkRjHJuWNi8GG0,,
Big Y World Class Market,42.1805805,-73.3659852,grocery,y,y,Great Barrington MA,740 South Main Street  Great Barrington,https://www.google.com/maps/place/?q=place_id:ChIJHydPVKlm54kRqGQDKANPCa8,,
Big Y World Class Market,42.29584860000001,-73.2405977,grocery,y,y,Lee MA,10 Pleasant Street  Lee,https://www.google.com/maps/place/?q=place_id:ChIJe4vDeA5D54kRFO8TXs2beg0,,
Big Y World Class Market,42.7011547,-73.1105841,grocery,y,y,North Adams MA,45 Veterans Memorial Drive  North Adams,https://www.google.com/maps/place/?q=place_id:ChIJnzpnrT-44IkRCw7vr48_d6M,,
Boyer's Food Market Pine Grove,40.56054690000001,-76.3922501,grocery,y,y,Pine Grove PA,30 Lovers Lane  Pine Grove,https://www.google.com/maps/place/?q=place_id:ChIJJbvEzTb5xYkRVreNujEOstY,,
Carlisle Barracks Commissary,40.2096199,-77.1690084,grocery,y,y,Carlisle PA,851 Sumner Road  Carlisle,https://www.google.com/maps/place/?q=place_id:ChIJfQ2DZzbgyIkRE-n7W1F2fno,,
Co-op Food StoresHanover,43.6981687,-72.2806136,grocery,y,y,Hanover NH,45 South Park Street  Hanover,https://www.google.com/maps/place/?q=place_id:ChIJcU3Lv-HJtEwR1LuZIZWiWYo,,
Country Harvest Family Market,40.8044444,-75.6025,grocery,y,y,Palmerton PA,572 Delaware Avenue  Palmerton,https://www.google.com/maps/place/?q=place_id:ChIJ2yNICpJOxIkR57YZCHeBATY,,
CTown Supermarkets,41.2906088,-73.91778,grocery,y,y,Peekskill NY,1049 Park Street  Peekskill,https://www.google.com/maps/place/?q=place_id:ChIJoeEl9tvIwokRS27EFPVYu0s,,
Davis IGA,41.72772079999999,-73.4717961,grocery,y,y,Kent CT,27 Kent Green Boulevard  Kent,https://www.google.com/maps/place/?q=place_id:ChIJYyJI5uRh3YkRXgjB3aFXQWk,,
Food City,36.1485932,-82.4183768,grocery,y,y,Erwin TN,110 North Industrial Drive  Erwin,https://www.google.com/maps/place/?q=place_id:ChIJAzEpuvRvWogRMkgm2erv99w,,
Food City,36.6410791,-81.7983321,grocery,y,y,Damascus VA,736 North Beaver Dam Avenue  Damascus,https://www.google.com/maps/place/?q=place_id:ChIJncRKq9tAUIgRmGz7kYbzhlU,,
Food City,36.84093860000001,-81.5057347,grocery,y,y,Marion VA,910 North Main Street  Marion,https://www.google.com/maps/place/?q=place_id:ChIJKf7jmbfSUYgRypMZerGCpMw,,
Fotter's Market,45.14119820000001,-70.4435729,grocery,y,y,Stratton ME,157 Main Street  Stratton,https://www.google.com/maps/place/?q=place_id:ChIJVVVVVeUfsUwR8dY04KV1U14,,
Grand Union Supermarkets,43.6095103,-72.971793,grocery,y,y,Rutland VT,12 S Main St. &  Norton Place  Rutland,https://www.google.com/maps/place/?q=place_id:ChIJB0vYO2ck4IkRZkCB67FTQQo,,
Grant's IGA Supermarket,37.1004831,-81.1145329,grocery,y,y,Bland VA,615 Main Street  Bland,https://www.google.com/maps/place/?q=place_id:ChIJS3E90q0ZTogRUrvNRFJjQXU,,
Guido's Fresh Marketplace,42.179621,-73.364708,grocery,y,y,Great Barrington MA,760 South Main Street  Great Barrington,https://www.google.com/maps/place/?q=place_id:ChIJV_E6VKlm54kRAfd6jol_pRQ,,
Hannaford,43.5858388,-72.9709554,grocery,y,y,Rutland VT,318 South Main Street  Rutland,https://www.google.com/maps/place/?q=place_id:ChIJ4xAIeZMk4IkRcS9TFBl_3NE,,
Hannaford,45.6585195,-68.6879845,grocery,y,y,Millinocket ME,843 Central Street  Millinocket,https://www.google.com/maps/place/?q=place_id:ChIJsRUJN1izukwRnlFI46-MlsQ,,
Henry's Market Inc,42.8793316,-73.1810832,grocery,y,y,Bennington VT,831 Main Street  Bennington,https://www.google.com/maps/place/?q=place_id:ChIJG8zD79WV4IkRh4Oau3f2SCk,,
Ingles Market,34.9504205,-83.7569937,grocery,y,y,Hiawassee GA,94 North Main Street  Hiawassee,https://www.google.com/maps/place/?q=place_id:ChIJN5VX-VsvX4gRIUXW1M2clHs,,
Ingles Market,35.1575843,-83.3927257,grocery,y,y,Franklin TN,1257 Georgia Road  Franklin,https://www.google.com/maps/place/?q=place_id:ChIJn209QqAlWYgRnvbCejRqLLo,,
Ingles Markets,35.17855370000001,-83.3867012,grocery,y,y,Franklin TN,152 West Palmer Street  Franklin,https://www.google.com/maps/place/?q=place_id:ChIJtV8rCOIkWYgRkVNH_7gjFDo,,
Ingles Markets,36.8459185,-81.5016755,grocery,y,y,Marion VA,1185 North Main Street  Marion,https://www.google.com/maps/place/?q=place_id:ChIJh0fnP8fSUYgRbc0aZOizGzI,,
Karns Foods,40.1612151,-77.1378254,grocery,y,y,Boiling Springs PA,413 Forge Road  Boiling Springs,https://www.google.com/maps/place/?q=place_id:ChIJ2YEiPX3hyIkR_Cd6O2bWJBI,,
Kroger,37.3969385,-79.911198,grocery,y,y,Daleville VA,72 Kingston Dr  Daleville,https://www.google.com/maps/place/?q=place_id:ChIJ-W57wrcaTYgRhN7jI_6IbEg,,
Kroger,38.0656119,-78.888324,grocery,y,y,Waynesboro VA,245 Arch Ave  Waynesboro,https://www.google.com/maps/place/?q=place_id:ChIJRTxYeaFjs4kRrkGDvZHFlt0,,
La Placita Market,41.2907167,-73.9177973,grocery,y,y,Peekskill NY,1049 Park Street  Peekskill,https://www.google.com/maps/place/?q=place_id:ChIJd6B8YtvIwokRgVezIh3g3jQ,,
LaBonne's Market - Salisbury,41.98231500000001,-73.421598,grocery,y,y,Salisbury CT,22 Academy Street  Salisbury,https://www.google.com/maps/place/?q=place_id:ChIJ53mrfJ9_54kRKtYc1VlMtLc,,
Market 32,41.362331,-74.709599,grocery,y,y,Port Jervis NY,1025 Pennsylvania Avenue  Matamoras,https://www.google.com/maps/place/?q=place_id:ChIJd5KWFPNFw4kRTELX2kek2Tc,,
Market 32,43.60390400000001,-72.978458,grocery,y,y,Rutland VT,38 Rutland Shopping Plaza  Rutland,https://www.google.com/maps/place/?q=place_id:ChIJfQGEHWck4IkRsv-AqiMhSe0,,
MARTIN'S,38.9107017,-78.1884738,grocery,y,y,Front Royal VA,409 South Street  Front Royal,https://www.google.com/maps/place/?q=place_id:ChIJQ3GobsPFtYkRLRxbSV3Artw,,
Peekskill Mini Mart,41.2910007,-73.9189354,grocery,y,y,Peekskill NY,5 Bank Street  Peekskill,https://www.google.com/maps/place/?q=place_id:ChIJE5JHfwnJwokRstwR9ivyGnc,,
Price Chopper,43.1756492,-73.0522417,grocery,y,y,Manchester Center VT,263 Depot Street UNIT 1  Manchester Center,https://www.google.com/maps/place/?q=place_id:ChIJZS101e9e4IkReYyy2AATW8U,,
Price Chopper,44.0412858,-71.6699944,grocery,y,y,North Woodstock and Lincoln NH,10 Papermill Drive  Lincoln,https://www.google.com/maps/place/?q=place_id:ChIJE6idhY-BtEwR4px3YSgrdvI,,
Rangeley IGA Supermarket - ME,44.9544444,-70.6377778,grocery,y,y,Rangeley ME,2185 Main St  Rangeley,https://www.google.com/maps/place/?q=place_id:ChIJH8IWk088sUwRixYrmd434ac,,
Redi Mart Supermarket,36.28134019999999,-82.1777661,grocery,y,y,Hampton TN,5110 U.S. 19E  Hampton,https://www.google.com/maps/place/?q=place_id:ChIJSUb6JL-BUIgRKMEurBdgb94,,
Redner's Warehouse Markets,40.5436312,-75.9764318,grocery,y,y,Hamburg PA,500 Hawk Ridge Drive  Hamburg,https://www.google.com/maps/place/?q=place_id:ChIJMTmAemXbxYkRYgUUxeg2qqA,,
Save A Lot,41.3764196,-74.69349,grocery,y,y,Port Jervis NY,100 Pike Street  Port Jervis,https://www.google.com/maps/place/?q=place_id:ChIJ4euaG_BPw4kRo4K5JuBB1z8,,
Save A Lot,41.30603610000001,-73.9115185,grocery,y,y,Peekskill NY,1099 North Division Street  Peekskill,https://www.google.com/maps/place/?q=place_id:ChIJu1V9dBjJwokRCn2nrkRhgr0,,
Sav-Mor Foods,35.1639592,-83.3993857,grocery,y,y,Franklin TN,398 Westgate Plaza  Franklin,https://www.google.com/maps/place/?q=place_id:ChIJL6gYzKElWYgRyeZPBk2tnc4,,
Shaw's,43.17195160000001,-73.0615685,grocery,y,y,Manchester Center VT,64 Equinox Terrace  Manchester Center,https://www.google.com/maps/place/?q=place_id:ChIJG5VBLEpe4IkR0cLchpqd780,,
ShopRite of Westfall Town Center,41.3518079,-74.7206629,grocery,y,y,Port Jervis NY,111 Hulst Dr Ste 724  Matamoras,https://www.google.com/maps/place/?q=place_id:ChIJeZRfHAFFw4kRjx9YN4aL0u0,,
Target Grocery,40.1960207,-77.1566585,grocery,y,y,Carlisle PA,246 Westminster Drive  Carlisle,https://www.google.com/maps/place/?q=place_id:ChIJxeFQDhzhyIkRReHAhgjRyHY,,
Target Grocery,41.31702500000001,-74.1518239,grocery,y,y,Harriman NY,128 Bailey Farm Road  Monroe,https://www.google.com/maps/place/?q=place_id:ChIJB38uDF_XwokR7BH56NwiPiE,,
Vermont Discount Store,43.6128509,-72.9884187,grocery,y,y,Rutland VT,88 Cleveland Avenue  Rutland,https://www.google.com/maps/place/?q=place_id:ChIJWzA7ankk4IkRc-fIMbgOaMI,,
Walmart,36.846392,-81.5008322,grocery,y,y,Marion VA,1193 N Main St  Marion,https://www.google.com/maps/place/?q=place_id:ChIJRQjZFMfSUYgRHe6m1eH4Wv8,,
Walmart,43.6053053,-72.980631,grocery,y,y,Rutland VT,90 Shopping Plaza Rd  Rutland,https://www.google.com/maps/place/?q=place_id:ChIJ40MFsEQk4IkR804i0yeJIoI,,
Walmart Neighborhood Market,38.0720172,-78.8952278,grocery,y,y,Waynesboro VA,1211 W Broad St Ste A  Waynesboro,https://www.google.com/maps/place/?q=place_id:ChIJd2gxtbpjs4kR5iWNqbG4RM4,,
Walmart Supercenter,35.1665068,-83.3654046,grocery,y,y,Franklin TN,273 Commons Dr  Franklin,https://www.google.com/maps/place/?q=place_id:ChIJqRQ5i5QkWYgR6VQeK6zF03o,,
Walmart Supercenter,37.329362,-80.7085492,grocery,y,y,Pearisburg VA,160 Kinter Way  Pearisburg,https://www.google.com/maps/place/?q=place_id:ChIJTS5O6jrcTYgR6ocjp4Q-cWU,,
Walmart Supercenter,40.1898979,-77.1946326,grocery,y,y,Carlisle PA,60 Noble Blvd  Carlisle,https://www.google.com/maps/place/?q=place_id:ChIJgSljUgoDxokRBYsSTpgFnJg,,
Walmart Supercenter,40.5640614,-76.0121716,grocery,y,y,Hamburg PA,1800 Tilden Ridge Dr  Hamburg,https://www.google.com/maps/place/?q=place_id:ChIJGc9LP5TcxYkRObFnMBCUnUI,,
Walmart Supercenter,41.3167559,-74.148402,grocery,y,y,Harriman NY,288 Larkin Dr  Monroe,https://www.google.com/maps/place/?q=place_id:ChIJ1Yh5NhbXwokRHpW-1TW-knY,,
Walmart Supercenter,42.8975719,-73.212162,grocery,y,y,Bennington VT,210 Northside Dr  Bennington,https://www.google.com/maps/place/?q=place_id:ChIJj9398O2W4IkRFyCsJn2L3Ps,,
Wild Oats Market,42.7037618,-73.1867252,grocery,y,y,Williamstown MA,320 Main Street  Williamstown,https://www.google.com/maps/place/?q=place_id:ChIJH3rPTwO64IkRIBHcRmtuAoM,,
Bon Secours Community Hospital,41.3676682,-74.6818346,hospital,y,y,Port Jervis NY,160 East Main Street  Port Jervis,https://www.google.com/maps/place/?q=place_id:ChIJuUW86KtIw4kRJOKYLEgqLrM,,
Carilion Giles Community Hospital,37.3331827,-80.7129522,hospital,y,y,Pearisburg VA,159 Hartley Way  Pearisburg,https://www.google.com/maps/place/?q=place_id:ChIJR7sbHILeTYgRWm5UENK9i7Q,,
Chatuge Regional Hospital,34.94664849999999,-83.7537878,hospital,y,y,Hiawassee GA,110 South Main Street  Hiawassee,https://www.google.com/maps/place/?q=place_id:ChIJv9VwMlwvX4gRInxd_l5gGEk,,
Cherokee Indian Hospital,35.48448989999999,-83.3232508,hospital,y,y,Cherokee NC,1 Hospital Road  Cherokee,https://www.google.com/maps/place/?q=place_id:ChIJaTInl-VDWYgRRrbi97dltkg,,
Emergency Room,42.7072592,-73.1095454,hospital,y,y,North Adams MA,71 Hospital Avenue  North Adams,https://www.google.com/maps/place/?q=place_id:ChIJnx6BLxe54IkRU1stcdlYjxw,,
Fairview Hospital,42.1910815,-73.3719755,hospital,y,y,Great Barrington MA,29 Lewis Avenue  Great Barrington,https://www.google.com/maps/place/?q=place_id:ChIJpbb2ulRh54kRBoGs0DvvyMI,,
Millinocket Regional Hospital,45.6529083,-68.7163761,hospital,y,y,Millinocket ME,200 Somerset Street  Millinocket,https://www.google.com/maps/place/?q=place_id:ChIJHSforG-zukwR0znWh8SdVtY,,
NewYork-Presbyterian Hudson Valley Hospital,41.2927229,-73.8927941,hospital,y,y,Peekskill NY,1980 Crompond Road  Cortlandt,https://www.google.com/maps/place/?q=place_id:ChIJT534Jf7IwokR2Bxgp8CPqKg,,
Page Memorial Hospital,38.66329519999999,-78.4686419,hospital,y,y,Luray VA,200 Memorial Drive  Luray,https://www.google.com/maps/place/?q=place_id:ChIJMYNYLgdOtIkRtJXto-t22i4,,
Rutland Regional Medical Center,43.5985264,-72.9553776,hospital,y,y,Rutland VT,160 Allen Street  Rutland,https://www.google.com/maps/place/?q=place_id:ChIJiTi0ofkk4IkRaf3TCvL9olU,,
Southwestern Vermont Medical Center,42.87433679999999,-73.2074264,hospital,y,y,Bennington VT,100 Hospital Drive  Bennington,https://www.google.com/maps/place/?q=place_id:ChIJwXK2PUKW4IkRG1CseYmXVyk,,
Valley Health Systems,38.66286009999999,-78.4698417,hospital,y,y,Luray VA,125 Memorial Drive  Luray,https://www.google.com/maps/place/?q=place_id:ChIJX6oaKwdOtIkRF_HVUlUXofE,,
Warren Memorial Hospital Op Center,38.9201962,-78.1905527,hospital,y,y,Front Royal VA,120 North Commerce Avenue  Front Royal,https://www.google.com/maps/place/?q=place_id:ChIJofe6KM7FtYkRPQzYet7nEB4,,
Bennington Post Office,42.8765826,-73.1983373,post office,y,y,Bennington VT,108 Elm Street  Bennington,https://www.google.com/maps/place/?q=place_id:ChIJm6zoCmWW4IkRQLm2pYYScd4,,
Caratunk Post Office,45.23391789999999,-69.9918231,post office,y,y,Caratunk ME,172 Main Street  Caratunk,https://www.google.com/maps/place/?q=place_id:ChIJQ6tZBLr3sEwROVrK7CHVvS4,,
Manchester Center Post Office,43.1675019,-73.0475206,post office,y,y,Manchester Center VT,3452 Richville Road  Manchester Center,https://www.google.com/maps/place/?q=place_id:ChIJ7Uc1OUVe4IkRI6g3zVH9WJo,,
United States Postal Service,34.9498767,-83.7579766,post office,y,y,Hiawassee GA,118 North Main Street  Hiawassee,https://www.google.com/maps/place/?q=place_id:ChIJYZvftl4vX4gRJmWSzwVZllc,,
United States Postal Service,35.17895899999999,-83.3741514,post office,y,y,Franklin TN,250 Depot Street  Franklin,https://www.google.com/maps/place/?q=place_id:ChIJa8mlfeMkWYgR5aWoz8x3wSw,,
United States Postal Service,35.485646,-83.315768,post office,y,y,Cherokee NC,671 Tsali Boulevard  Cherokee,https://www.google.com/maps/place/?q=place_id:ChIJjyB0JftDWYgRRCzc2Q5ieac,,
United States Postal Service,35.8928082,-82.8276967,post office,y,y,Hot Springs NC,111 Bridge Street  Hot Springs,https://www.google.com/maps/place/?q=place_id:ChIJO8boeBkyWogRVQWe6-vcnJE,,
United States Postal Service,36.1460518,-82.4159384,post office,y,y,Erwin TN,201 North Main Avenue  Erwin,https://www.google.com/maps/place/?q=place_id:ChIJSQfIy05uWogR7hBTLi8rdJI,,
United States Postal Service,36.2860929,-82.1649927,post office,y,y,Hampton TN,433 U.S. 321  Hampton,https://www.google.com/maps/place/?q=place_id:ChIJ_fvo45-BUIgRr3_K0fu-JtQ,,
United States Postal Service,36.6360786,-81.7898702,post office,y,y,Damascus VA,211 North Reynolds Street  Damascus,https://www.google.com/maps/place/?q=place_id:ChIJKbskftpAUIgR-npPCpAdMnA,,
United States Postal Service,36.7025903,-81.4390971,post office,y,y,Troutdale VA,93 Ripshin Road  Troutdale,https://www.google.com/maps/place/?q=place_id:ChIJIa9d1cTLUYgRb7N05VCojOM,,
United States Postal Service,36.8322356,-81.5175569,post office,y,y,Marion VA,200 Pearl Avenue  Marion,https://www.google.com/maps/place/?q=place_id:ChIJXcdOvFItUIgRWydTEg2yNxo,,
United States Postal Service,37.1002684,-81.1161054,post office,y,y,Bland VA,207 Jackson Street  Bland,https://www.google.com/maps/place/?q=place_id:ChIJf79qsq0ZTogRMR5U6pZZjn4,,
United States Postal Service,37.3281096,-80.7356715,post office,y,y,Pearisburg VA,206 North Main Street  Pearisburg,https://www.google.com/maps/place/?q=place_id:ChIJsc2jLo7eTYgRAgU6v338Xz4,,
United States Postal Service,37.4062371,-79.9129951,post office,y,y,Daleville VA,1492 Roanoke Road  Daleville,https://www.google.com/maps/place/?q=place_id:ChIJ0-LAgc4aTYgRWoWR9ZsfSn0,,
United States Postal Service,37.6314776,-79.4494276,post office,y,y,Glasgow VA,805 Blue Ridge Road  Glasgow,https://www.google.com/maps/place/?q=place_id:ChIJqTLns8rTTIgRkUWPvaU9RYE,,
United States Postal Service,37.7340379,-79.353546,post office,y,y,Buena Vista VA,2071 Forest Avenue  Buena Vista,https://www.google.com/maps/place/?q=place_id:ChIJ22o7Xmkzs4kRJo4dSRRZpuk,,
United States Postal Service,38.0675991,-78.8893582,post office,y,y,Waynesboro VA,200 South Wayne Avenue  Waynesboro,https://www.google.com/maps/place/?q=place_id:ChIJE-MR-aNjs4kRGEvxHv1WudI,,
United States Postal Service,38.0708933,-78.8750104,post office,y,y,Waynesboro VA,422 North Commerce Avenue  Waynesboro,https://www.google.com/maps/place/?q=place_id:ChIJ44Wdgg9js4kRO4vROCiaw-A,,
United States Postal Service,38.6647446,-78.4604213,post office,y,y,Luray VA,102 South Broad Street  Luray,https://www.google.com/maps/place/?q=place_id:ChIJCXHcxQlOtIkRJ-zDFjls070,,
United States Postal Service,38.9232911,-78.1923017,post office,y,y,Front Royal VA,120 East 3rd Street  Front Royal,https://www.google.com/maps/place/?q=place_id:ChIJEcsXGNLFtYkRUu32TS1pOuM,,
United States Postal Service,39.32653270000001,-77.7450621,post office,y,y,Harpers Ferry WV,1010 Washington Street  Harpers Ferry,https://www.google.com/maps/place/?q=place_id:ChIJo212TlMdtokRrdl5-3QdN1A,,
United States Postal Service,39.65414229999999,-77.5704604,post office,y,y,Smithsburg MD,43 Grove Lane  Smithsburg,https://www.google.com/maps/place/?q=place_id:ChIJYx1rc1uVyYkRAv0OnczUb6g,,
United States Postal Service,39.64415590000001,-77.5849999,post office,y,y,Smithsburg MD,22509 Cavetown Church Road  Cavetown,https://www.google.com/maps/place/?q=place_id:ChIJWXTwgDWVyYkRICyYbQ97un8,,
United States Postal Service,39.9107887,-77.5598871,post office,y,y,Fayetteville PA,4025 Lincoln Way East  Fayetteville,https://www.google.com/maps/place/?q=place_id:ChIJ8wGNWdihyYkRlvGW5_qlNIs,,
United States Postal Service,40.15051439999999,-77.1270456,post office,y,y,Boiling Springs PA,3 East 1st Street  Boiling Springs,https://www.google.com/maps/place/?q=place_id:ChIJvfLWoN3jyIkR5zRB3cHDlF0,,
United States Postal Service,40.2030415,-77.1903063,post office,y,y,Carlisle PA,66 West Louther Street  Carlisle,https://www.google.com/maps/place/?q=place_id:ChIJAcHl7dThyIkRKOjc-xsEXLs,,
United States Postal Service,40.2029697,-77.1903893,post office,y,y,Carlisle PA,1 Carlisle Barracks  Carlisle,https://www.google.com/maps/place/?q=place_id:ChIJSe-jMzHgyIkRJCEZXxBy0o4,,
United States Postal Service,40.3925542,-77.0292905,post office,y,y,Duncannon PA,203 North Market Street  Duncannon,https://www.google.com/maps/place/?q=place_id:ChIJc8BfiwvQyIkRvY8VA63V3bQ,,
United States Postal Service,40.550441,-76.383646,post office,y,y,Pine Grove PA,103 Snyder Avenue  Pine Grove,https://www.google.com/maps/place/?q=place_id:ChIJIyQYv7X-xYkReP2k_sCFwuE,,
United States Postal Service,40.5560482,-75.9846371,post office,y,y,Hamburg PA,50 North 3rd Street  Hamburg,https://www.google.com/maps/place/?q=place_id:ChIJ763g0nrbxYkRvhJlccs7dC0,,
United States Postal Service,40.7993196,-75.614849,post office,y,y,Palmerton PA,128 Delaware Avenue Frnt  Palmerton,https://www.google.com/maps/place/?q=place_id:ChIJx8jbNJlOxIkRTufsOBPeOlI,,
United States Postal Service,40.8112555,-75.5907286,post office,y,y,Palmerton PA,100 Little Gap Road  Aquashicola,https://www.google.com/maps/place/?q=place_id:ChIJtzurb_ZOxIkRIcuYJ5vUuls,,
United States Postal Service,40.850886,-75.2918863,post office,y,y,Wind Gap PA,138 North Broadway  Wind Gap,https://www.google.com/maps/place/?q=place_id:ChIJS69dWFRmxIkR2CyTt3IjbbI,,
United States Postal Service,40.9835705,-75.14273,post office,y,y,Delaware Water Gap PA,12 Shepard Avenue  Delaware Water Gap,https://www.google.com/maps/place/?q=place_id:ChIJGSDt48-HxIkRiT8mlo5prZs,,
United States Postal Service,41.3749208,-74.6919639,post office,y,y,Port Jervis NY,20 Sussex Street  Port Jervis,https://www.google.com/maps/place/?q=place_id:ChIJV99DBlJPw4kRW-z3J5R3rlw,,
United States Postal Service,41.370566,-74.6981377,post office,y,y,Port Jervis NY,6 Pennsylvania Avenue  Matamoras,https://www.google.com/maps/place/?q=place_id:ChIJuxcsrVBPw4kRqsV23bcCToA,,
United States Postal Service,41.3015257,-74.5620912,post office,y,y,Unionville NY,1 Main Street  Unionville,https://www.google.com/maps/place/?q=place_id:ChIJMbfVEfE4w4kRTVGah2KD2YI,,
United States Postal Service,41.1950586,-74.4830748,post office,y,y,Vernon NJ,530 County Road 515 Unit 13  Vernon Township,https://www.google.com/maps/place/?q=place_id:ChIJgw1MG-k9w4kRRDENZi0Gb8w,,
United States Postal Service,41.3079728,-74.1529218,post office,y,y,Harriman NY,88 New York 17M  Harriman,https://www.google.com/maps/place/?q=place_id:ChIJb--dgWvXwokRxSIvbu3VQTQ,,
United States Postal Service,41.3312479,-73.9875877,post office,y,y,Fort Montgomery NY,130 Firefighters Memorial Drive  Fort Montgomery,https://www.google.com/maps/place/?q=place_id:ChIJ_YE55GPOwokRM9ALnl8GYNk,,
United States Postal Service,41.3110678,-73.9874454,post office,y,y,Fort Montgomery NY,30 Service Road  Bear Mountain,https://www.google.com/maps/place/?q=place_id:ChIJ6QFUzVbOwokRbmUEX5olXoo,,
United States Postal Service,41.2895672,-73.9230162,post office,y,y,Peekskill NY,738 South Street  Peekskill,https://www.google.com/maps/place/?q=place_id:ChIJ468QkNrIwokRY9J8HwtaL8I,,
United States Postal Service,41.5638221,-73.6020919,post office,y,y,Pawling NY,10 Broad Street  Pawling,https://www.google.com/maps/place/?q=place_id:ChIJZ9kkRatb3YkRTJfAvxBGiww,,
United States Postal Service,41.7272295,-73.4718593,post office,y,y,Kent CT,31 Kent Green Boulevard  Kent,https://www.google.com/maps/place/?q=place_id:ChIJgxLH6ORh3YkRpintyxqw_2Q,,
United States Postal Service,41.9821203,-73.4223099,post office,y,y,Salisbury CT,22 Main Street  Salisbury,https://www.google.com/maps/place/?q=place_id:ChIJsaF8Xp9_54kRsa_svs_pqfw,,
United States Postal Service,42.1963424,-73.3614126,post office,y,y,Great Barrington MA,222 Main Street  Great Barrington,https://www.google.com/maps/place/?q=place_id:ChIJl8QkB8do54kRQz67qd10xpk,,
United States Postal Service,42.3052185,-73.2507566,post office,y,y,Lee MA,35 Frank  Consolati Way  Lee,https://www.google.com/maps/place/?q=place_id:ChIJt68lVGpD54kRDMrRoyIUOo8,,
United States Postal Service,42.4731257,-73.164254,post office,y,y,Dalton MA,609 Main Street  Dalton,https://www.google.com/maps/place/?q=place_id:ChIJuyn5yehL54kRed5iLjiMGJ8,,
United States Postal Service,42.5618495,-73.1578621,post office,y,y,Cheshire MA,214 Church Street  Cheshire,https://www.google.com/maps/place/?q=place_id:ChIJYQnguuy04IkR7L3KNbd8coI,,
United States Postal Service,42.6981581,-73.1107115,post office,y,y,North Adams MA,67 Summer Street  North Adams,https://www.google.com/maps/place/?q=place_id:ChIJtUxE6hW44IkRkvUnXUslx6Y,,
United States Postal Service,42.71051749999999,-73.2040451,post office,y,y,Williamstown MA,56 Spring Street  Williamstown,https://www.google.com/maps/place/?q=place_id:ChIJxyoKQhO64IkRYtsR8PSmJik,,
United States Postal Service,42.87657579999999,-73.1982993,post office,y,y,Bennington VT,108 Elm Street  Bennington,https://www.google.com/maps/place/?q=place_id:ChIJ0_Qyi2WW4IkRXFAN4xEa-Ik,,
United States Postal Service,43.1676854,-73.0474412,post office,y,y,Manchester Center VT,3452 Richville Road  Manchester Center,https://www.google.com/maps/place/?q=place_id:ChIJ8RvydlNe4IkRo30rgJXJxp4,,
United States Postal Service,43.1633619,-73.0730322,post office,y,y,Manchester Center VT,300 Seminary Avenue  Manchester,https://www.google.com/maps/place/?q=place_id:ChIJs-N0Xs5f4IkRPSozZGrmohk,,
United States Postal Service,43.60791159999999,-72.9823802,post office,y,y,Rutland VT,173 West Street  Rutland,https://www.google.com/maps/place/?q=place_id:ChIJewZdPX0k4IkRVIJFxQO8MXk,,
United States Postal Service,43.613209,-72.965174,post office,y,y,Rutland VT,86 Woodstock Avenue STE 2  Rutland,https://www.google.com/maps/place/?q=place_id:ChIJ4z1vSEMk4IkRqnWTF5COgT4,,
United States Postal Service,43.700657,-72.289287,post office,y,y,Hanover NH,50 South Main Street  Hanover,https://www.google.com/maps/place/?q=place_id:ChIJi02JzefJtEwRJJWT7jWd5Tk,,
United States Postal Service,43.7137172,-72.3087548,post office,y,y,Hanover NH,293 Main Street  Norwich,https://www.google.com/maps/place/?q=place_id:ChIJ97IpNKXJtEwRUrMfN6nRT-0,,
United States Postal Service,44.0335018,-71.6869316,post office,y,y,North Woodstock and Lincoln NH,159 Main Street Unit A  North Woodstock,https://www.google.com/maps/place/?q=place_id:ChIJE-2hpSuCtEwRj-f0DIJtVGc,,
United States Postal Service,44.0414537,-71.6712012,post office,y,y,North Woodstock and Lincoln NH,10 Lumber Yard Drive Unit 9  Lincoln,https://www.google.com/maps/place/?q=place_id:ChIJPYRmj4-BtEwRliuGvxushxM,,
United States Postal Service,44.39022069999999,-71.1824029,post office,y,y,Â Gorham NH,165 Main Street  Gorham,https://www.google.com/maps/place/?q=place_id:ChIJe3NYegrys0wRyUBpU1PecRg,,
United States Postal Service,44.6324366,-70.7497345,post office,y,y,Andover ME,6 Church Street  Andover,https://www.google.com/maps/place/?q=place_id:ChIJhXnBbtFgsUwRj_jBd3FBJI0,,
United States Postal Service,44.9657373,-70.643152,post office,y,y,Rangeley ME,2517 Main Street  Rangeley,https://www.google.com/maps/place/?q=place_id:ChIJx_L8i188sUwR6ufRLmY81AM,,
United States Postal Service,45.1404263,-70.4378819,post office,y,y,Stratton ME,95 Main Street  Stratton,https://www.google.com/maps/place/?q=place_id:ChIJlx51gArgsEwRpPOmJa2nIZk,,
United States Postal Service,45.2861046,-69.5004538,post office,y,y,Monson ME,2 Greenville Road  Monson,https://www.google.com/maps/place/?q=place_id:ChIJ87rW1ENqsEwRS8C8MtxSlKI,,
United States Postal Service,45.655073,-68.7086848,post office,y,y,Millinocket ME,113 Penobscot Avenue  Millinocket,https://www.google.com/maps/place/?q=place_id:ChIJo0NfDWazukwR5t9f_iBUc_o,,
ACME Markets Pharmacy,41.1947102,-74.4832518,pharmacy,y,y,Vernon NJ,530 Rt 515 #1  Vernon Township,https://www.google.com/maps/place/?q=place_id:ChIJ3efRR-k9w4kRFJ9UdHM54f0,,
Adams & Bright Drug Store,40.55490590000001,-75.9836917,pharmacy,y,y,Hamburg PA,306 State Street  Hamburg,https://www.google.com/maps/place/?q=place_id:ChIJbU0JJGXbxYkRUtS5L9AQJPk,,
Aliton's Managed Care Pharmacy,41.3739228,-74.6910609,pharmacy,y,y,Port Jervis NY,34-38 Ball Street  Port Jervis,https://www.google.com/maps/place/?q=place_id:ChIJ6wG-alJPw4kR6LFxpU5mydM,,
Aliton's Pharmacy Home Healthcare Centers,41.3743717,-74.6927143,pharmacy,y,y,Port Jervis NY,12 Sussex Street  Port Jervis,https://www.google.com/maps/place/?q=place_id:ChIJw4Me-FFPw4kRh-STTtUeDD8,,
Baxter's Pharmacy,41.29177979999999,-73.9208215,pharmacy,y,y,Peekskill NY,950 Main Street  Peekskill,https://www.google.com/maps/place/?q=place_id:ChIJqfbF1tvIwokRUwyem94PYIs,,
Beauchamp & O'Rourke,43.6122933,-72.966625,pharmacy,y,y,Rutland VT,62 Woodstock Avenue  Rutland,https://www.google.com/maps/place/?q=place_id:ChIJIaUgKF0k4IkRYvUcqj-uiCc,,
Berkshire Community Pharmacy of North Adams,42.7069546,-73.1093341,pharmacy,y,y,North Adams MA,71 Hospital Avenue  North Adams,https://www.google.com/maps/place/?q=place_id:ChIJy7Wy1TO54IkR2_hixni5q80,,
Big Y Pharmacy and Wellness Center,42.1806533,-73.3659462,pharmacy,y,y,Great Barrington MA,700 Main Street Ste 2  Great Barrington,https://www.google.com/maps/place/?q=place_id:ChIJQ-oyVKlm54kRR6tQJXpc2AU,,
Big Y Pharmacy and Wellness Center,42.29584860000001,-73.2405977,pharmacy,y,y,Lee MA,10 Pleasant Street  Lee,https://www.google.com/maps/place/?q=place_id:ChIJ0TroeA5D54kRbnnyoifU8Wo,,
Buena Vista Family Pharmacy,37.7365071,-79.3537441,pharmacy,y,y,Buena Vista VA,2263 Magnolia Avenue  Buena Vista,https://www.google.com/maps/place/?q=place_id:ChIJz7l6IGkzs4kR6VfuAGC4WrM,,
Cherokee Pharmacy - Health Mart,35.4626262,-83.3139476,pharmacy,y,y,Cherokee NC,664 Cherokee Crossing Road  Whittier,https://www.google.com/maps/place/?q=place_id:ChIJm0c56V1BWYgReb9Ql-HoP5o,,
Clinchfield Drug Co,36.14524189999999,-82.4168209,pharmacy,y,y,Erwin TN,101 South Main Avenue  Erwin,https://www.google.com/maps/place/?q=place_id:ChIJ2VUP3k5uWogRxS1xuKR-yFg,,
CVS Pharmacy,36.1545316,-82.4085266,pharmacy,y,y,Erwin TN,917 North Main Avenue  Erwin,https://www.google.com/maps/place/?q=place_id:ChIJYzf28cpvWogR4dKYFhwZCKU,,
CVS Pharmacy,36.8436536,-81.5057205,pharmacy,y,y,Marion VA,945 North Main Street  Marion,https://www.google.com/maps/place/?q=place_id:ChIJffRuEzXTUYgRZJ4wwrBsTxk,,
CVS Pharmacy,37.41617979999999,-79.9111806,pharmacy,y,y,Daleville VA,48 Marketplace Drive  Daleville,https://www.google.com/maps/place/?q=place_id:ChIJ0cJE49YaTYgRCrqwPzU2vvM,,
CVS Pharmacy,37.7424061,-79.3792964,pharmacy,y,y,Buena Vista VA,2148 East Midland Trail  Buena Vista,https://www.google.com/maps/place/?q=place_id:ChIJG03SvlIzs4kROqocQ_zgnEw,,
CVS Pharmacy,38.0726232,-78.8964276,pharmacy,y,y,Waynesboro VA,1235 West Broad Street  Waynesboro,https://www.google.com/maps/place/?q=place_id:ChIJDXKBk7pjs4kRPYIPuKv8XfU,,
CVS Pharmacy,38.91102819999999,-78.1839186,pharmacy,y,y,Front Royal VA,800 John Marshall Highway  Front Royal,https://www.google.com/maps/place/?q=place_id:ChIJ3wvpjMHFtYkR3GTTI_Om32I,,
CVS Pharmacy,40.1956929,-77.1569645,pharmacy,y,y,Carlisle PA,246 Westminster Drive  Carlisle,https://www.google.com/maps/place/?q=place_id:ChIJd5QdeK7hyIkRvLBVetm7MhE,,
CVS Pharmacy,40.1920223,-77.1944257,pharmacy,y,y,Carlisle PA,765 South West Street  Carlisle,https://www.google.com/maps/place/?q=place_id:ChIJI81HnNjhyIkROz4WRD1I-8s,,
CVS Pharmacy,40.83841929999999,-75.2959969,pharmacy,y,y,Wind Gap PA,855 South Broadway  Wind Gap,https://www.google.com/maps/place/?q=place_id:ChIJ--xiSGBnxIkRlwP6w09wRcE,,
CVS Pharmacy,41.198715,-74.485075,pharmacy,y,y,Vernon NJ,302 New Jersey 94  Vernon Township,https://www.google.com/maps/place/?q=place_id:ChIJnzmxMeg9w4kR-SPUZsJ_5Lg,,
CVS Pharmacy,41.3171454,-74.1522553,pharmacy,y,y,Harriman NY,128 Bailey Farm Road  Monroe,https://www.google.com/maps/place/?q=place_id:ChIJJa5qKhfXwokRbfkvpt_dfDQ,,
CVS Pharmacy,41.2959639,-73.8949334,pharmacy,y,y,Peekskill NY,1827 Main Street  Peekskill,https://www.google.com/maps/place/?q=place_id:ChIJq6rq1QPJwokRKHmAfGiNTAc,,
CVS Pharmacy,41.5621189,-73.5996221,pharmacy,y,y,Pawling NY,26 East Main Street  Pawling,https://www.google.com/maps/place/?q=place_id:ChIJW3fXSFNa3YkRDMvBvqJenHQ,,
CVS Pharmacy,42.1926946,-73.3645605,pharmacy,y,y,Great Barrington MA,362 Main Street SUITE 2  Great Barrington,https://www.google.com/maps/place/?q=place_id:ChIJzVgVh65m54kRE8pp91-FF10,,
CVS Pharmacy,42.70123710000001,-73.110941,pharmacy,y,y,North Adams MA,55 Veterans Memorial Drive  North Adams,https://www.google.com/maps/place/?q=place_id:ChIJUxsrRRW44IkRZLoIR18Z8qI,,
CVS Pharmacy,42.89540290000001,-73.2021648,pharmacy,y,y,Bennington VT,8 Kocher Drive  Bennington,https://www.google.com/maps/place/?q=place_id:ChIJAQDAmo2W4IkRAklq-6VkgCc,,
CVS Pharmacy,43.6104201,-72.973202,pharmacy,y,y,Rutland VT,31-33 South Main Street  Rutland,https://www.google.com/maps/place/?q=place_id:ChIJh_P_TWAk4IkRNTuO2g9Q8s4,,
CVS Pharmacy,43.6994504,-72.2905539,pharmacy,y,y,Hanover NH,79 South Main Street  Hanover,https://www.google.com/maps/place/?q=place_id:ChIJuWKcFebJtEwRZpvij3NBeH4,,
Extended Care Pharmacy LLC,42.88189,-73.196788,pharmacy,y,y,Bennington VT,207 North Street  Bennington,https://www.google.com/maps/place/?q=place_id:ChIJGUdudmOW4IkR0CpAkKkVxNU,,
Family Pharmacy Services,38.90900579999999,-78.1833366,pharmacy,y,y,Front Royal VA,240 Remount Road  Front Royal,https://www.google.com/maps/place/?q=place_id:ChIJbxuXVCrEtYkRrkChYd5w4HU,,
Food City Pharmacy,36.1484483,-82.4183501,pharmacy,y,y,Erwin TN,110 North Industrial Drive  Erwin,https://www.google.com/maps/place/?q=place_id:ChIJaQQeRvZvWogRquvL-IVog1U,,
Food City Pharmacy,36.64120949999999,-81.7984763,pharmacy,y,y,Damascus VA,736 North Beaver Dam Avenue  Damascus,https://www.google.com/maps/place/?q=place_id:ChIJHzW1VNpAUIgRla_vBsyg0fU,,
Food City Pharmacy,36.8407254,-81.5056347,pharmacy,y,y,Marion VA,910 North Main Street  Marion,https://www.google.com/maps/place/?q=place_id:ChIJqR4uyE7TUYgR_zoEdVF0t2Y,,
GIANT Pharmacy,40.1963422,-77.1799,pharmacy,y,y,Carlisle PA,255 South Spring Garden Street  Carlisle,https://www.google.com/maps/place/?q=place_id:ChIJwUeNR87hyIkR4qwaDrNLwYE,,
Giles Pharmacy,37.32730759999999,-80.7137969,pharmacy,y,y,Pearisburg VA,1615 Wenonah Avenue  Pearisburg,https://www.google.com/maps/place/?q=place_id:ChIJ3arWQmbdTYgRTaD0yisXmNw,,
Hampton Pharmacy,36.2864228,-82.1680914,pharmacy,y,y,Hampton TN,339 U.S. 321  Hampton,https://www.google.com/maps/place/?q=place_id:ChIJ3eHD3Z-BUIgRB4UWGMXWgKI,,
Hannaford Pharmacy,43.5858796,-72.9709661,pharmacy,y,y,Rutland VT,318 South Main Street  Rutland,https://www.google.com/maps/place/?q=place_id:ChIJfQGEHWck4IkRiA4TbWLn6EM,,
Hannaford Pharmacy,45.6586074,-68.6880203,pharmacy,y,y,Millinocket ME,843 Central Street  Millinocket,https://www.google.com/maps/place/?q=place_id:ChIJqdlFZFizukwRbnn5axjRExI,,
Hiawassee Hometown Pharmacy,34.94343049999999,-83.7520832,pharmacy,y,y,Hiawassee GA,230 Chatuge Way  Hiawassee,https://www.google.com/maps/place/?q=place_id:ChIJyXTiWfgvX4gRiXc0_oYawRU,,
Ingles Markets,35.17855370000001,-83.3867012,pharmacy,y,y,Franklin TN,152 West Palmer Street  Franklin,https://www.google.com/maps/place/?q=place_id:ChIJtV8rCOIkWYgRkVNH_7gjFDo,,
Ingles Markets,36.8459185,-81.5016755,pharmacy,y,y,Marion VA,1185 North Main Street  Marion,https://www.google.com/maps/place/?q=place_id:ChIJh0fnP8fSUYgRbc0aZOizGzI,,
Ingles Pharmacy,34.950591,-83.756322,pharmacy,y,y,Hiawassee GA,94 North Main Street  Hiawassee,https://www.google.com/maps/place/?q=place_id:ChIJWzFs-VsvX4gR9HLAcCxOxl8,,
Ingles Pharmacy,35.1575843,-83.3927257,pharmacy,y,y,Franklin TN,1257 Georgia Road  Franklin,https://www.google.com/maps/place/?q=place_id:ChIJ21Uj5aQlWYgRsaRpVBGB3UE,,
Kent Apothecary,41.7267582,-73.475208,pharmacy,y,y,Kent CT,38 North Main Street  Kent,https://www.google.com/maps/place/?q=place_id:ChIJ7Zq7-eVh3YkRpUbC6KNQWoI,,
Kroger Pharmacy,37.3968618,-79.9111712,pharmacy,y,y,Daleville VA,72 Kingston Dr  Daleville,https://www.google.com/maps/place/?q=place_id:ChIJ-W57wrcaTYgRudxk_SJ19yM,,
Kroger Pharmacy,38.0655358,-78.8883892,pharmacy,y,y,Waynesboro VA,245 Arch Ave  Waynesboro,https://www.google.com/maps/place/?q=place_id:ChIJRTxYeaFjs4kRr0SKgZ7p9I8,,
Laurel Family Drug,36.63422060000001,-81.7884847,pharmacy,y,y,Damascus VA,204 South Shady Avenue  Damascus,https://www.google.com/maps/place/?q=place_id:ChIJXQOBudBAUIgRH7kSoerDxZc,,
Life Science Pharmacy Inc,41.311026,-74.155315,pharmacy,y,y,Harriman NY,144 New York 17M #4  Harriman,https://www.google.com/maps/place/?q=place_id:ChIJteD-LRPXwokRXx9RHsmWtgc,,
Market 32 Pharmacy,41.3623026,-74.7095758,pharmacy,y,y,Port Jervis NY,1025 Pennsylvania Avenue  Matamoras,https://www.google.com/maps/place/?q=place_id:ChIJBwc6V_NFw4kRZdeiTskNeq0,,
Market 32 Pharmacy,43.60384699999999,-72.9784273,pharmacy,y,y,Rutland VT,38 rutland shopping Plaza  Rutland,https://www.google.com/maps/place/?q=place_id:ChIJ-zL2R1sk4IkRSXj_uizyhQ4,,
Martin's Pharmacy,38.9105897,-78.1886827,pharmacy,y,y,Front Royal VA,409 South Street  Front Royal,https://www.google.com/maps/place/?q=place_id:ChIJV6tResPFtYkRzTJdMUoa-X0,,
Palmerton Pharmacy,40.8017825,-75.6091295,pharmacy,y,y,Palmerton PA,330 Delaware Avenue  Palmerton,https://www.google.com/maps/place/?q=place_id:ChIJrz-vQJpPxIkReMQ_h2sHDLI,,
Pharmacy Northshire,43.172493,-73.06398,pharmacy,y,y,Manchester Center VT,34 Ways Lane  MANCHESTR CTR,https://www.google.com/maps/place/?q=place_id:ChIJlX0sB0pe4IkRr_4xEGa_mqQ,,
Pine Grove Pharmacy,40.5524,-76.384868,pharmacy,y,y,Pine Grove PA,10 East Pottsville Street  Pine Grove,https://www.google.com/maps/place/?q=place_id:ChIJvQmRMbX-xYkRxaC3UtiuydQ,,
Port Jervis Pharmacy,41.3723268,-74.6916526,pharmacy,y,y,Port Jervis NY,15 Jersey Avenue  Port Jervis,https://www.google.com/maps/place/?q=place_id:ChIJ0TK0ylNPw4kRhuc-asSbec0,,
Rite Aid Pharmacy,34.9455225,-83.7540655,pharmacy,y,y,Hiawassee GA,131 South Main Street  Hiawassee,https://www.google.com/maps/place/?q=place_id:ChIJxYIODV0vX4gRv9ZknWJJ1gA,,
Rite Aid Pharmacy,40.19131859999999,-77.1613734,pharmacy,y,y,Carlisle PA,320 York Road  Carlisle,https://www.google.com/maps/place/?q=place_id:ChIJEYZNn7rhyIkR0yMnA08Ipfo,,
Rite Aid Pharmacy,40.3901468,-77.0439573,pharmacy,y,y,Duncannon PA,5 Friendly Drive  Duncannon,https://www.google.com/maps/place/?q=place_id:ChIJlctKA-LRyIkR-VRkbj-h8eM,,
Rite Aid Pharmacy,40.5424816,-75.9774136,pharmacy,y,y,Hamburg PA,807 South Fourth Street  Hamburg,https://www.google.com/maps/place/?q=place_id:ChIJ-0gFkJ3bxYkRXVHLLkQ_Esw,,
Rite Aid Pharmacy,40.8055038,-75.601625,pharmacy,y,y,Palmerton PA,601 Delaware Avenue  Palmerton,https://www.google.com/maps/place/?q=place_id:ChIJEzo4lI1OxIkRRoksi9WrFmM,,
Rite Aid Pharmacy,44.0390293,-71.6736215,pharmacy,y,y,North Woodstock and Lincoln NH,50 Main Street  Lincoln,https://www.google.com/maps/place/?q=place_id:ChIJcU5U_oWBtEwRWQq0D5PGzHs,,
Robert G. Harris  R,40.5524002,-76.3848676,pharmacy,y,y,Pine Grove PA,8 East Pottsville Street #10  Pine Grove,https://www.google.com/maps/place/?q=place_id:ChIJy0AeNrX-xYkRi1QbPxzAizo,,
Roller Pharmacy,36.145696,-82.4165509,pharmacy,y,y,Erwin TN,109 North Main Avenue  Erwin,https://www.google.com/maps/place/?q=place_id:ChIJ6ZUH0E5uWogRTx4M4BY9pQc,,
RRMC Pharmacy,43.5983802,-72.9551016,pharmacy,y,y,Rutland VT,160 Allen Street  Rutland,https://www.google.com/maps/place/?q=place_id:ChIJ____oPkk4IkRvGUGlj1YbW0,,
Rutland Pharmacy,43.5977914,-72.9629503,pharmacy,y,y,Rutland VT,75 Allen Street  Rutland,https://www.google.com/maps/place/?q=place_id:ChIJ7_iMAPMk4IkRdLssgKBDjIc,,
Rx Drive-Thru,35.1573925,-83.3926509,pharmacy,y,y,Franklin TN,United States,https://www.google.com/maps/place/?q=place_id:ChIJbQVzHKUlWYgRuz7seiZIaCM,,
Smart Pharmacy,35.1735225,-83.3859458,pharmacy,y,y,Franklin TN,60 Georgia Road  Franklin,https://www.google.com/maps/place/?q=place_id:ChIJTSmJaRslWYgRvc-iXqZZRZk,,
The Pharmacy  Inc.,42.8818299,-73.1968392,pharmacy,y,y,Bennington VT,205 North Street  Bennington,https://www.google.com/maps/place/?q=place_id:ChIJgeg8dmOW4IkRhn64JbXUa6o,,
Tipton Compounding Pharmacy,35.1829778,-83.3784465,pharmacy,y,y,Franklin TN,175 East Main Street suite a  Franklin,https://www.google.com/maps/place/?q=place_id:ChIJWxr1ieEkWYgRVhumqZVbYCg,,
Tri-Valley Pharmacy,40.5503806,-76.3849042,pharmacy,y,y,Pine Grove PA,101 South Tulpehocken Street  Pine Grove,https://www.google.com/maps/place/?q=place_id:ChIJW_RbBrX-xYkRBmxqe_2lqTE,,
U-Save-It Pharmacy,35.16411699999999,-83.392083,pharmacy,y,y,Franklin TN,20 Franklin Plaza Dr  Franklin,https://www.google.com/maps/place/?q=place_id:ChIJIdvmqqclWYgRBMpHED1kOqU,,
Walgreens Pharmacy,34.9455061,-83.7540777,pharmacy,y,y,Hiawassee GA,131 South Main Street  Hiawassee,https://www.google.com/maps/place/?q=place_id:ChIJeanO6iwvX4gRYgaWvISnoP8,,
Walgreens Pharmacy,35.1634855,-83.3907852,pharmacy,y,y,Franklin TN,19 Sawmill Village Lane  Franklin,https://www.google.com/maps/place/?q=place_id:ChIJVVUVMaYlWYgR-J0-a28557k,,
Walgreens Pharmacy,35.711415,-83.5190079,pharmacy,y,y,Gatlinburg TN,811 Parkway  Gatlinburg,https://www.google.com/maps/place/?q=place_id:ChIJVyFx58RVWYgRkryixBFjxvY,,
Walgreens Pharmacy,36.14803779999999,-82.4137431,pharmacy,y,y,Erwin TN,401 North Main Avenue  Erwin,https://www.google.com/maps/place/?q=place_id:ChIJlTn7z0tuWogRmxDFyDSlUpk,,
Walgreens Pharmacy,36.8432956,-81.5018157,pharmacy,y,y,Marion VA,1102 North Main Street  Marion,https://www.google.com/maps/place/?q=place_id:ChIJF4AkfsfSUYgR634i3vdQ-V8,,
Walgreens Pharmacy,37.3267918,-80.7359064,pharmacy,y,y,Pearisburg VA,121 North Main Street  Pearisburg,https://www.google.com/maps/place/?q=place_id:ChIJOSEvGaHfTYgRNWuNMFFUglg,,
Walgreens Pharmacy,39.6419287,-77.5895371,pharmacy,y,y,Smithsburg MD,22411 Jefferson Boulevard  Smithsburg,https://www.google.com/maps/place/?q=place_id:ChIJFycqdNGVyYkRf_nHfAvqAyI,,
Walgreens Pharmacy,41.375806,-74.694171,pharmacy,y,y,Port Jervis NY,76 Pike Street  Port Jervis,https://www.google.com/maps/place/?q=place_id:ChIJVVWVF05Pw4kRLTGGj3mhgLY,,
Walgreens Pharmacy,41.2916017,-73.9144247,pharmacy,y,y,Peekskill NY,1201 Main Street  Peekskill,https://www.google.com/maps/place/?q=place_id:ChIJ4dRJet7IwokROy_L48-2iqM,,
Walgreens Pharmacy,42.3033171,-73.2469564,pharmacy,y,y,Lee MA,25 Park Street  Lee,https://www.google.com/maps/place/?q=place_id:ChIJAQDAoGxD54kRpZn-1str5ec,,
Walgreens Pharmacy,42.7025769,-73.183545,pharmacy,y,y,Williamstown MA,212 Main Street  Williamstown,https://www.google.com/maps/place/?q=place_id:ChIJedsN8ba74IkRTc7l-rmoJUI,,
Walgreens Pharmacy,42.8814044,-73.1982013,pharmacy,y,y,Bennington VT,194 North Street  Bennington,https://www.google.com/maps/place/?q=place_id:ChIJN0fPQjOX4IkRYJcPUsEf8-E,,
Walgreens Pharmacy,43.17798329999999,-73.0550087,pharmacy,y,y,Manchester Center VT,4993 Main Street Suite A  Manchester Center,https://www.google.com/maps/place/?q=place_id:ChIJQ3toZyxf4IkRHRYj0IRzBc8,,
Walgreens Pharmacy,43.61042509999999,-72.971233,pharmacy,y,y,Rutland VT,10 Woodstock Avenue  Rutland,https://www.google.com/maps/place/?q=place_id:ChIJP1YdE2ck4IkROM_f6IsQhRA,,
Walmart Pharmacy,35.1663203,-83.3647475,pharmacy,y,y,Franklin TN,273 Commons Dr  Franklin,https://www.google.com/maps/place/?q=place_id:ChIJP3-sZ5QkWYgRS3u_gx-mB0w,,
Walmart Pharmacy,36.846392,-81.5008322,pharmacy,y,y,Marion VA,1193 N Main St  Marion,https://www.google.com/maps/place/?q=place_id:ChIJRQjZFMfSUYgR1M520ubEdSk,,
Walmart Pharmacy,37.3290165,-80.7086242,pharmacy,y,y,Pearisburg VA,160 Kinter Way  Pearisburg,https://www.google.com/maps/place/?q=place_id:ChIJqx5lxJbeTYgRLTQQL8M1BJc,,
Walmart Pharmacy,38.0720172,-78.8952278,pharmacy,y,y,Waynesboro VA,1211 W Broad St Ste A  Waynesboro,https://www.google.com/maps/place/?q=place_id:ChIJd2gxtbpjs4kRHmFCdnr1Qio,,
Walmart Pharmacy,40.1891925,-77.1943451,pharmacy,y,y,Carlisle PA,60 Noble Blvd  Carlisle,https://www.google.com/maps/place/?q=place_id:ChIJd4K3JtnhyIkRgl6tOSyqfXg,,
Walmart Pharmacy,40.5640614,-76.0121716,pharmacy,y,y,Hamburg PA,1800 Tilden Ridge Dr  Hamburg,https://www.google.com/maps/place/?q=place_id:ChIJ786D7pDcxYkRfnZYhiyghlQ,,
Walmart Pharmacy,41.3167559,-74.148402,pharmacy,y,y,Harriman NY,288 Larkin Dr  Monroe,https://www.google.com/maps/place/?q=place_id:ChIJ1Yh5NhbXwokRf8cnjtm84dg,,
Walmart Pharmacy,42.8983402,-73.210368,pharmacy,y,y,Bennington VT,210 Northside Dr  Bennington,https://www.google.com/maps/place/?q=place_id:ChIJlbz47u2W4IkR-hNNwFLeU6E,,
Walmart Pharmacy,43.6053053,-72.980631,pharmacy,y,y,Rutland VT,90 Shopping Plaza Rd  Rutland,https://www.google.com/maps/place/?q=place_id:ChIJ7_H-sGIk4IkRq_Kv4crc4bc,,
Walmart Pharmacy,35.1663203,-83.3647475,pharmacy,y,y,Franklin TN,273 Commons Drive  Franklin,https://www.google.com/maps/place/?q=place_id:ChIJP3-sZ5QkWYgRS3u_gx-mB0w,,
Walmart Pharmacy,36.846392,-81.5008322,pharmacy,y,y,Marion VA,1193 North Main Street  Marion,https://www.google.com/maps/place/?q=place_id:ChIJRQjZFMfSUYgR1M520ubEdSk,,
Walmart Pharmacy,38.07201719999999,-78.8952278,pharmacy,y,y,Waynesboro VA,1211 West Broad Street Ste A  Waynesboro,https://www.google.com/maps/place/?q=place_id:ChIJd2gxtbpjs4kRHmFCdnr1Qio,,
Weis Markets Pharmacy,40.2014157,-77.181839,pharmacy,y,y,Carlisle PA,351 East High Street  Carlisle,https://www.google.com/maps/place/?q=place_id:ChIJ2USxeyoeyYkR74MJL6SBlUA,,
Weis Pharmacy,40.5554322,-75.9800484,pharmacy,y,y,Hamburg PA,552 State Street  Hamburg,https://www.google.com/maps/place/?q=place_id:ChIJVR22dm_bxYkRjpEdvhVdGUI,,
Williamstown Apothecary,42.7100993,-73.2043382,pharmacy,y,y,Williamstown MA,72 Spring Street  Williamstown,https://www.google.com/maps/place/?q=place_id:ChIJtxr6zzu74IkR3FqpCyFc4SE,,
Wind Gap Community Pharmacy,40.83992769999999,-75.297145,pharmacy,y,y,Wind Gap PA,31 West 1st Street  Wind Gap,https://www.google.com/maps/place/?q=place_id:ChIJXwqrK1RnxIkRLs4vhzDD3F0,,
The Caratunk House Hiker Hostel,45.2364324,-69.9946566,hostel,y,y,Caratunk ME,218 Main St Caratunk ME 04925,https://www.google.com/maps/place/?q=place_id:ChIJN9Ww5P73sEwR3Zv2Oz8X538,,
Four Pines Hostel,37.36633609999999,-80.1534,hostel,y,y,Catawaba VA,6164 Newport Road #624  Catawba,https://www.google.com/maps/place/?q=place_id:ChIJLdGc8kmmTYgRU7ZGXzG1aLU,,
The Broken Fiddle Hostel,36.634139,-81.7834558,hostel,y,y,Damascus VA,104 Damascus Drive  Damascus,https://www.google.com/maps/place/?q=place_id:ChIJ60uE6NNAUIgRN3tJVksjcZ8,,
The Place Church Hostel,36.633786,-81.7874026,hostel,y,y,Damascus VA,203 East Creepers Way  Damascus,https://www.google.com/maps/place/?q=place_id:ChIJc8T-0NBAUIgRlLtZ6fCeHMA,,
Woodchuck Hostel,36.6359876,-81.7935983,hostel,y,y,Damascus VA,533 Docie Street  Damascus,https://www.google.com/maps/place/?q=place_id:ChIJq84GottAUIgRuBTYaZIs8So,,
The Grove Hostel,35.1781402,-83.3779582,hostel,y,y,Franklin TN,130 Hayes Circle  Franklin,https://www.google.com/maps/place/?q=place_id:ChIJiZDcdaUlWYgRM8JAya3CnqM,,
Stanimal's 328 Hostel & Shuttle Service,37.62931999999999,-79.4560448,hostel,y,y,Glasgow VA,1131 Rockbridge Road  Glasgow,https://www.google.com/maps/place/?q=place_id:ChIJ9Tdnj9bTTIgREE0hNu5cx6g,,
Braemar Castle Hostel,36.283664,-82.158482,hostel,y,y,Hampton TN,130 Dennis Cove Road  Hampton,https://www.google.com/maps/place/?q=place_id:ChIJJXPmuW2BUIgRGuDgXjSLYbg,,
Boots Off Hostel & Campground,36.2995818,-82.1303705,hostel,y,y,Hampton TN,142 Shook Branch Road  Hampton,https://www.google.com/maps/place/?q=place_id:ChIJ7SqiIC2BUIgRivoYVHy3zks,,
Cross Trails Hostel,39.3264421,-77.7004306,hostel,y,y,Harpers Ferry WV,19123 Sandy Hook Road  Knoxville,https://www.google.com/maps/place/?q=place_id:ChIJMw4MS34dtokRzV4VQefOmBE,,
Open Arms at the Edge of Town Hostel & Inn,38.6693913,-78.4329785,hostel,y,y,Luray VA,1260 East Main Street  Luray,https://www.google.com/maps/place/?q=place_id:ChIJMfrfo9NNtIkRH9vMpr4-Wd8,,
The Merry Inn Hiker Hostel,36.8335737,-81.5178932,hostel,y,y,Marion VA,206 East Main Street  Marion,https://www.google.com/maps/place/?q=place_id:ChIJd6mP5xEtUIgRrG0vQ_LKE14,,
Appalachian Trail Hostel & Outfitters,45.6533711,-68.7086462,hostel,y,y,Millinocket ME,33 Penobscot Avenue  Millinocket,https://www.google.com/maps/place/?q=place_id:ChIJjTxAnGizukwRv5pN2MDvV8Y,,
Shaw's Hiker Hostel,45.286783,-69.5029462,hostel,y,y,Monson ME,17 Pleasant Street  Monson,https://www.google.com/maps/place/?q=place_id:ChIJB0x4ckFqsEwRDHbIFrxW8AI,,
The Appalachian Station at 19E,36.1724395,-82.0013351,hostel,y,y,The Appalachian Station at 19E,9367 U.S. 19E  Roan Mountain,https://www.google.com/maps/place/?q=place_id:ChIJ5zYaSNSPUIgRoctWWCfWmgA,,
The Refuge Hostel,36.19520679999999,-82.0155116,hostel,y,y,Mountain Harbour Hostel,240 Roby Miller Road  Roan Mountain,https://www.google.com/maps/place/?q=place_id:ChIJwaPDAfqPUIgRBJCMAFLXn5Y,,
Vango/Abby Memorial Hostel,36.21616119999999,-82.0244893,hostel,y,y,Mountain Harbour Hostel,Cherokee National Forest  255 Phil Arnett Road  Roan Mountain,https://www.google.com/maps/place/?q=place_id:ChIJ9f3seHaPUIgR0qznNQaN_4Y,,
The Hostel at Hideaway Point,35.3522828,-83.5560177,hostel,y,y,Nantahala Outdoor Center NOC,164 Hideaway Point Road  Bryson City,https://www.google.com/maps/place/?q=place_id:ChIJh4N-x_81WYgRI4lflhNrYHQ,,
Bear Garden Hiker Hostel,36.9845575,-81.4042474,hostel,y,y,Quarter Way Inn,306 West Blue Grass Trail  Ceres,https://www.google.com/maps/place/?q=place_id:ChIJWU2QiNXXUYgRfTdPx-x_Oz0,,
Appalachian Dreamer Hiker Hostel,36.9625806,-81.4246191,hostel,y,y,Quarter Way Inn,502 Dotson Ridge Road  Ceres,https://www.google.com/maps/place/?q=place_id:ChIJ9_MFh3PWUYgRzoEwOiuqagM,,
Hikers Hostel,43.6066765,-72.9789932,hostel,y,y,Rutland VT,23 Center Street  Rutland,https://www.google.com/maps/place/?q=place_id:ChIJBRaU9GIk4IkRD6PcFBCJp6Y,,
Standing Bear Farm/Hostel,35.7857278,-83.1016193,hostel,y,y,Standing Bear Hostel,4255 Green Corner Road  Hartford,https://www.google.com/maps/place/?q=place_id:ChIJ1-4h0JTZW4gRlPHr1pbZluo,,
Troutdale Church Hiker Hostel,36.70132359999999,-81.4428616,hostel,y,y,Troutdale VA,48 Sapphire Lane  Troutdale,https://www.google.com/maps/place/?q=place_id:ChIJzedg5hfLUYgRS3o50kRjlpo,,
Stanimal's 328 Hostel,38.0722139,-78.8990006,hostel,y,y,Waynesboro VA,1333 West Main Street  Waynesboro,https://www.google.com/maps/place/?q=place_id:ChIJHz8pZtNjs4kR2bkeVeZsf48,,
Mountain Harbour Hostel,36.17939546,-82.01636935,hostel,y,y,Mountain Harbour Hostel,9151 US-19E  Roan Mountain TN 37687,https://www.google.com/maps/place/?q=place_id:ChIJ4TxWG-WEUIgRl0ndL1zlGaI,,
Mountain Harbour Hostel,36.17939546,-82.01636935,hostel,y,y,The Appalachian Station at 19E,9151 US-19E  Roan Mountain TN 37687,https://www.google.com/maps/place/?q=place_id:ChIJ4TxWG-WEUIgRl0ndL1zlGaI,,
The Appalachian Station at 19E,36.1724395,-82.0013351,hostel,y,y,Mountain Harbour Hostel,9367 U.S. 19E  Roan Mountain,https://www.google.com/maps/place/?q=place_id:ChIJ5zYaSNSPUIgRoctWWCfWmgA,,
Vango/Abby Memorial Hostel,36.21616119999999,-82.0244893,hostel,y,y,The Appalachian Station at 19E,Cherokee National Forest  255 Phil Arnett Road  Roan Mountain,https://www.google.com/maps/place/?q=place_id:ChIJ9f3seHaPUIgR0qznNQaN_4Y,,
The Refuge Hostel,36.19520679999999,-82.0155116,hostel,y,y,The Appalachian Station at 19E,240 Roby Miller Road  Roan Mountain,https://www.google.com/maps/place/?q=place_id:ChIJwaPDAfqPUIgRBJCMAFLXn5Y,,
Mountain Crossings,34.7349683,-83.9177536,outfitter,1,,Mountain Crossings,12471 Gainesville Hwy Blairsville,https://www.google.com/maps/place/?q=place_id:ChIJvc3FeXE-X4gRX7Y7nWmisvI,,
C & J Mountain Outfitters,34.9502381,-83.7589579,outfitter,1,,Hiawassee GA,159 N Main St Hiawassee,https://www.google.com/maps/place/?q=place_id:ChIJ3bmqNVkvX4gRtQ1jtwrGx7Q,,
Trailful Outdoor Co.,34.9487837,-83.7575172,outfitter,1,,Hiawassee GA,75 N Main St Hiawassee,https://www.google.com/maps/place/?q=place_id:ChIJPRdd_DgvX4gRZqbzw57z25c,,
Three Eagles Outfitters,35.1642137,-83.3909721,outfitter,1,,Franklin TN,78 Siler Rd Franklin,https://www.google.com/maps/place/?q=place_id:ChIJQw4ktqclWYgR1fPdYAMPmUo,,
Outdoor 76,35.1821462,-83.3806698,outfitter,1,,Franklin TN,35 E Main St Franklin,https://www.google.com/maps/place/?q=place_id:ChIJ-QRm4x0lWYgRyxEquGEIlT0,,
Fish Tales Outfitters & Guide Service,35.182104,-83.3808191,outfitter,1,,Franklin TN,29 E Main St Franklin,https://www.google.com/maps/place/?q=place_id:ChIJg3b5haYlWYgRxMA9V5WByJM,,
NOC Outfitter's Store,35.3312826,-83.5917956,outfitter,1,,Nantahala Outdoor CenterÂ  NOC,13078 Hwy 19 W Bryson City,https://www.google.com/maps/place/?q=place_id:ChIJ2c0rOQs1WYgRbv1IDujjwkI,,
Nantahala Outdoor Center Gatlinburg,35.7064486,-83.5217731,outfitter,,,Gatlinburg TN,1138 Parkway Gatlinburg,https://www.google.com/maps/place/?q=place_id:ChIJl4pZOc9VWYgR1VteQ0Cwcm4,,
Day Hiker,35.7124516,-83.5144327,outfitter,,,Gatlinburg TN,634 Parkway # 1 Gatlinburg,https://www.google.com/maps/place/?q=place_id:ChIJsyhJjttVWYgRAC6ZXmQLZO0,,
BCOutdoors - Cherokee (Bike Rentals),35.4835672,-83.316134,outfitter,,,Cherokee NC,516 Tsali Blvd Cherokee,https://www.google.com/maps/place/?q=place_id:ChIJZ8f-8zdDWYgRc3wJAe7ppkY,,
Bluff Mountain Outfitters,35.8928873,-82.8269547,outfitter,,,Hot Springs NC,152 Bridge St Hot Springs,https://www.google.com/maps/place/?q=place_id:ChIJC_-FRhkyWogRUNmSWlw1_fo,,
Erwin Outdoor Supply,36.1451009,-82.417557,outfitter,,,Erwin TN,113 Union St Erwin,https://www.google.com/maps/place/?q=place_id:ChIJlb4NrcZvWogRbeLrcRpOacE,,
Mt Rogers Outfitters,36.6341186,-81.7850238,outfitter,,,Damascus VA,335 E Laurel Ave Damascus,https://www.google.com/maps/place/?q=place_id:ChIJa0GymdBAUIgR0YRfLLDSoRE,,
Damascus Outfitters,36.6349509,-81.7896594,outfitter,,,Damascus VA,128 W Laurel Ave Damascus,https://www.google.com/maps/place/?q=place_id:ChIJbcRzvpxBUIgR_FRA-GF1KcY,,
Abingdon Adventures,36.6349509,-81.7896594,outfitter,,,Damascus VA,128 W Laurel Ave Damascus,https://www.google.com/maps/place/?q=place_id:ChIJF-HRYrkTUIgRTGVG21h46I4,,
Marion Outdoors (Outfitters),36.8335148,-81.517747,outfitter,,,Marion VA,208 E Main St Marion,https://www.google.com/maps/place/?q=place_id:ChIJv1o6vLstUIgRFNWrDwaPkk8,,
Army & Navy Store,36.8340587,-81.5173505,outfitter,,,Marion VA,219 E Main St Marion,https://www.google.com/maps/place/?q=place_id:ChIJE2qwZk0tUIgREV8BU9RhFEQ,,
The Merry Inn Hiker Hostel,36.8335737,-81.5178932,outfitter,,,Marion VA,206 E Main St Marion,https://www.google.com/maps/place/?q=place_id:ChIJd6mP5xEtUIgRrG0vQ_LKE14,,
Outfitter,37.327867,-80.7356249,outfitter,,,Pearisburg VA,200 N Main St Pearisburg,https://www.google.com/maps/place/?q=place_id:ChIJ67sHVtrfTYgRbCp_kRK_zv8,,
Outdoor Trails,37.3975543,-79.9104292,outfitter,,,Daleville VA,28 Kingston Dr Daleville,https://www.google.com/maps/place/?q=place_id:ChIJeRn2wbcaTYgRz_tapB4c1wY,,
Appalachian Trail Outfitters,38.665687,-78.4603777,outfitter,,,Luray VA,2 W Main St Luray,https://www.google.com/maps/place/?q=place_id:ChIJ33CSd-JNtIkRfopPBl-SJIM,,
Mountain Trails - Front Royal,38.9181478,-78.1920131,outfitter,,,Front Royal VA,120 E Main St Front Royal,https://www.google.com/maps/place/?q=place_id:ChIJdxQybdDFtYkRUP_BfdGug18,,
Harpers Ferry Outfitters Hike & Bike Supplies,39.3238052,-77.7309158,outfitter,,,Harpers Ferry WV,161 Potomac St Harpers Ferry,https://www.google.com/maps/place/?q=place_id:ChIJ3baxUlodtokRpeyiy5yuCys,,
TCO Fly Shop - Boiling Springs,40.1499418,-77.1276809,outfitter,,,Boiling Springs PA,2 E 1st St Boiling Springs,https://www.google.com/maps/place/?q=place_id:ChIJ7fG8CN3jyIkRsum_JMCtwoE,,
Kind of Outdoorsy,40.3897095,-77.0309213,outfitter,,,Duncannon PA,9 S Market St Duncannon,https://www.google.com/maps/place/?q=place_id:ChIJSQ_hySLRyIkRkds0j-9FKyU,,
Cabela's,40.5576261,-76.0019511,outfitter,,,Hamburg PA,100 Cabela Dr Hamburg,https://www.google.com/maps/place/?q=place_id:ChIJmwxQWpfcxYkRZzVguweXrsE,,
Arc'teryx Woodbury Outlet,41.3145952,-74.1266288,outfitter,,,Harriman NY,208 Red Apple Ct Central Valley,https://www.google.com/maps/place/?q=place_id:ChIJH3sq8TLXwokRyyjUkx2RFF8,,
The North Face Woodbury,41.3175641,-74.1267919,outfitter,,,Harriman NY,461 Dune Road Central Valley,https://www.google.com/maps/place/?q=place_id:ChIJn6FyeS3XwokRKl1Rc3MyJhw,,
Columbia Factory Store,41.3166616,-74.1303021,outfitter,,,Harriman NY,173 Niagara Central Valley,https://www.google.com/maps/place/?q=place_id:ChIJOYzV_zHXwokRDkO3aBzOgh4,,
ECCO OUTLET WOODBURY,41.3171894,-74.1272094,outfitter,,,Harriman NY,439 Evergreen Ct Central Valley,https://www.google.com/maps/place/?q=place_id:ChIJoZ6QYS3XwokR_86f9lE-4Fc,,
Barrington Outfitters,42.1944601,-73.3619776,outfitter,,,Great Barrington MA,289 Main St Great Barrington,https://www.google.com/maps/place/?q=place_id:ChIJW3kaLq5m54kRP5UZn2mSk2U,,
Eagle Shoe & Boot Co,42.1986599,-73.3613109,outfitter,,,Great Barrington MA,154 Main St #101 Great Barrington,https://www.google.com/maps/place/?q=place_id:ChIJifo027Bm54kRZ4M5l7_7Q7I,,
Nature's Closet,42.710385,-73.2045113,outfitter,,,Williamstown MA,61 Spring St Williamstown,https://www.google.com/maps/place/?q=place_id:ChIJuxpvQhO64IkRQQypAsrYrFc,,
Orvis Outlet,43.1712743,-73.0628535,outfitter,,,Manchester Center VT,4382 Main St Manchester,https://www.google.com/maps/place/?q=place_id:ChIJD8AKa0pe4IkRsXR22RQ_SCU,,
The Mountain Goat,43.1767659,-73.05658,outfitter,,,Manchester Center VT,4886 Main St Manchester Center,https://www.google.com/maps/place/?q=place_id:ChIJUyHtjEVe4IkRbyNKw-fyr9M,,
Orvis,43.1689791,-73.0657025,outfitter,,,Manchester Center VT,4180 Main St Manchester,https://www.google.com/maps/place/?q=place_id:ChIJRxXHSTVe4IkR4d-WxRWfr1E,,
Gear Haus,43.1780202,-73.054333,outfitter,,,Manchester Center VT,31 Memorial Ave Manchester,https://www.google.com/maps/place/?q=place_id:ChIJU4OQ7Dxf4IkRYZocBIy06Ko,,
Base Camp,43.6685184,-72.8030009,outfitter,,,Killington VT,2363 US-4 Killington,https://www.google.com/maps/place/?q=place_id:ChIJ8ytmkiAq4IkRwbKK2fdPUpc,,
Killington Sports,43.6678664,-72.804926,outfitter,,,Killington VT,2326 US-4 Killington,https://www.google.com/maps/place/?q=place_id:ChIJaTqIoiAq4IkR-n9JVGc7_rE,,
Lahout's Summit Shop - The North Face Patagonia & Stio,44.0458605,-71.6675203,outfitter,,,North Woodstock and Lincoln NH,165 Main St Lincoln,https://www.google.com/maps/place/?q=place_id:ChIJDdxB9JCBtEwRmmrgfdYDAec,,
Lahout's - Life is Good O'Neill & Columbia Sportswear Concept Store,44.0387053,-71.6750291,outfitter,,,North Woodstock and Lincoln NH,41 Main St Lincoln,https://www.google.com/maps/place/?q=place_id:ChIJo_-4C4aBtEwRY3e9qyXvfwU,,
Burgeon Outdoor,44.0427944,-71.6686019,outfitter,,,North Woodstock and Lincoln NH,25 S Mountain Dr a4 Lincoln,https://www.google.com/maps/place/?q=place_id:ChIJcVo5_7OBtEwRYnxqVt97xuI,,
Gorham Hardware & Sports,44.3890722,-71.1763374,outfitter,,,Â Gorham NH,96 Main St Gorham,https://www.google.com/maps/place/?q=place_id:ChIJHb67f_Pts0wRZVg-zEgUXOg,,
Ecopelagicon A Nature Store,44.9650382,-70.6417171,outfitter,,,Rangeley ME,7 Pond St Rangeley,https://www.google.com/maps/place/?q=place_id:ChIJ2e6Ue188sUwRvkkTMeTjdaQ,,
Poet’s Gear Emporium,45.2868268,-69.5025689,outfitter,,,Monson ME,13 Pleasant St Monson,https://www.google.com/maps/place/?q=place_id:ChIJib1Xu7xrsEwRqvNJPfoN100,,
Appalachian Trail Hostel & Outfitters,45.6533711,-68.7086462,outfitter,,,Millinocket ME,33 Penobscot Ave Millinocket,https://www.google.com/maps/place/?q=place_id:ChIJjTxAnGizukwRv5pN2MDvV8Y,,
Knife Edge Trading Post,45.65638819999999,-68.6840536,outfitter,,,Millinocket ME,10 Balsam Dr Millinocket,https://www.google.com/maps/place/?q=place_id:ChIJB3GaTFizukwR087fn8CyJGY,,
The Green Dragon Hostel,34.9009797,-83.7217027,hostel,,,Hiawassee GA,The Green Dragon Hostel 2708 GA-17 Hiawassee,https://www.google.com/maps/place/?q=place_id:ChIJc0Hw9eMvX4gRj5Us_slEIao,,
All in the Tramily Hiker Suite,35.1575426,-83.3700083,hostel,,,Franklin TN,59 Windy Hill Dr Franklin,https://www.google.com/maps/place/?q=place_id:ChIJX5PHIU4lWYgRTd6zJS5Ee6U,,
Mountain Trails Shuttles,34.915761,-83.758187,shuttle,,AT,Hiawassee GA,2195 Lake Louisa Rd Hiawassee,https://www.google.com/maps/place/?q=place_id:ChIJN6unYCDohAIRxLQCmTznvdo,(828) 231-7728,
Hiawassee Budget Inn,34.9446036,-83.7533855,shuttle,,AT,Hiawassee GA,193 S Main St Hiawassee,https://www.google.com/maps/place/?q=place_id:ChIJbyhWVF0vX4gRkzSjmLULtKg,(706) 896-4121,
Macon County Transit,35.2031721,-83.3692581,bus,,AT,Franklin TN,36 Pannell Ln Franklin,https://www.google.com/maps/place/?q=place_id:ChIJG96S-dEkWYgR8ZVEHYililM,(828) 349-2222,
Nantahala Outdoor Center,35.3313123,-83.5916507,shuttle,,AT,Nantahala Outdoor CenterÂ  NOC,13077 US-19 Bryson City,https://www.google.com/maps/place/?q=place_id:ChIJhyHyNbM1WYgRMjugsFOziTQ,(828) 785-5082,https://noc.com/
BENZ-TAXI of Gatlinburg Tennessee,35.7072426,-83.5254479,taxi,taxi,,Gatlinburg TN,308 Ownby St Gatlinburg,https://www.google.com/maps/place/?q=place_id:ChIJnz01i8hVWYgRXaG4DL3j4kY,(865) 202-0690,https://www.tnvacation.com/local/sevierville-benz-taxi-luxury-transportation
Gatlinburg City Mass Transit Center,35.7140664,-83.5127306,bus,,,Gatlinburg TN,88 River Rd #101 Gatlinburg,https://www.google.com/maps/place/?q=place_id:ChIJxSFDUMRVWYgRz7SO9amfJqw,(865) 436-3897,http://www.gatlinburgtrolley.org/
Nantahala Outdoor Center Gatlinburg,35.7064486,-83.5217731,shuttle,,AT,Gatlinburg TN,1138 Parkway Gatlinburg,https://www.google.com/maps/place/?q=place_id:ChIJl4pZOc9VWYgR1VteQ0Cwcm4,(865) 277-8209,https://noc.com/retail-locations/noc-gatlinburg
Cherokee Cabs,35.4560406,-83.3124066,taxi,taxi,,Cherokee NC,125 Tee Pee Dr Whittier,https://www.google.com/maps/place/?q=place_id:ChIJI_8mr8xBWYgREusrSvX7fTU,(828) 269-8621,http://www.cherokeecabs.com/
EBCI Transit Services,35.4848971,-83.3139982,bus,,,Cherokee NC,680 Acquoni Rd Cherokee,https://www.google.com/maps/place/?q=place_id:ChIJDWej0-VDWYgRY7dCuSbeB60,(828) 359-6300,http://www.cherokeetransit.com/
Standing Bear Farm/Hostel,35.7857278,-83.1016193,shuttle,,AT,Standing Bear Hostel,4255 Green Corner Rd Hartford,https://www.google.com/maps/place/?q=place_id:ChIJ1-4h0JTZW4gRlPHr1pbZluo,(423) 487-0014,http://standingbearfarmhostel.com/
AT Hiker Shuttles,36.1526109,-82.4180102,shuttle,springer mountain to harpers ferry,AT,Erwin TN,N Buffalo St Erwin,https://www.google.com/maps/place/?q=place_id:ChIJGxIhmbBvWogRq0pq9rvmWhA,(423) 270-9775,https://www.athikershuttles.com/
Mountain Harbour Bed and Breakfast,36.179449,-82.016339,shuttle,,AT,Mountain Harbour Hostel,9151 US-19E Roan Mountain,https://www.google.com/maps/place/?q=place_id:ChIJ4TxWG-WEUIgRl0ndL1zlGaI,(423) 772-9494,https://mountainharbour.info/
Braemar Castle Hostel,36.2836,-82.1583627,shuttle,,AT,Hampton TN,130 Dennis Cove Rd Hampton,https://www.google.com/maps/place/?q=place_id:ChIJJXPmuW2BUIgRGuDgXjSLYbg,(423) 725-2411,0
Boots Off Hostel & Campground,36.2995818,-82.1303705,shuttle,,AT,Hampton TN,142 Shook Branch Rd Hampton,https://www.google.com/maps/place/?q=place_id:ChIJ7SqiIC2BUIgRivoYVHy3zks,(239) 218-3904,http://www.bootsoff.camp/
Black Bear Resort,36.2609513,-82.1161193,shuttle,,AT,Hampton TN,1511 Dennis Cove Rd Hampton,https://www.google.com/maps/place/?q=place_id:ChIJc-OmCx2EUIgRU-WTBDz9Heo,(423) 725-5988,http://www.blackbearresorttn.com/
Shuttle Shack,36.6335029,-81.7832518,shuttle,,AT,Damascus VA,112 Douglas Dr Damascus,https://www.google.com/maps/place/?q=place_id:ChIJ12MTF9RAUIgRlKqPR7n4HsA,(276) 475-3773,http://shuttleshack.com/
Blue Blaze Bike Rental & Shuttle,36.6352779,-81.7909167,shuttle,,AT,Damascus VA,226 W Laurel Ave Damascus,https://www.google.com/maps/place/?q=place_id:ChIJc_2SadpAUIgRI6YWA9ABBeE,(276) 475-5095,http://www.blueblazebikeandshuttle.com/
"The Bike Station Bike Rental & Shuttle Damascus, VA",36.6340739,-81.784639,shuttle,,AT,Damascus VA,401 E 3rd St Damascus,https://www.google.com/maps/place/?q=place_id:ChIJ84WV69NAUIgRd4F44czviaA,(855) 758-3083,https://creepertrailbikestation.com/?utm_source=GMB&utm_medium=organic
Bicycle Junction,36.630082,-81.7819115,shuttle,,AT,Damascus VA,425 Douglas Dr Damascus,https://www.google.com/maps/place/?q=place_id:ChIJi4O-VNRAUIgR9B-9Yy1E-sA,(276) 475-5727,http://bicycle-junction.com/
Adventure Damascus & Sundog Outfitter,36.6308242,-81.7837869,shuttle,,AT,Damascus VA,331 Douglas Dr Damascus,https://www.google.com/maps/place/?q=place_id:ChIJQRiwPNRAUIgRB493YCAAJYc,(276) 475-6262,https://www.adventuredamascus.com/
Crazy Larry's,36.632594,-81.7836983,shuttle,,AT,Damascus VA,209 Douglas Dr Damascus,https://www.google.com/maps/place/?q=place_id:ChIJp7h2ENRAUIgRv0U2hezNbNU,(276) 525-5138,https://www.facebook.com/CrazyLarrysHostel
Mt Rogers Outfitters,36.6341186,-81.7850238,shuttle,,AT,Damascus VA,335 E Laurel Ave Damascus,https://www.google.com/maps/place/?q=place_id:ChIJa0GymdBAUIgR0YRfLLDSoRE,(276) 475-5416,https://mt-rogers-outfitters.ueniweb.com/?utm_campaign=gmb
Damascus Outfitters,36.6349509,-81.7896594,shuttle,,AT,Damascus VA,128 W Laurel Ave Damascus,https://www.google.com/maps/place/?q=place_id:ChIJbcRzvpxBUIgR_FRA-GF1KcY,(276) 546-8411,https://www.damascusoutfitters.com/
Mountain Lynx (District Three Public Transit),36.8558525,-81.4702319,bus,,,Marion VA,4453 Lee Hwy Marion,https://www.google.com/maps/place/?q=place_id:ChIJwbdkZ1bSUYgRJa86DN1Ifcc,(276) 782-9300,https://district-three.org/index.php/town-of-marion/
Angels Rest Hiker's Haven,37.3328267,-80.7344115,shuttle,,AT,Pearisburg VA,204 Douglas Ln Pearisburg,https://www.google.com/maps/place/?q=place_id:ChIJ21qyA5HeTYgRbr-8Q526pDM,(540) 599-5717,https://www.angelsresthikershaven.com/
Four Pines Hostel,37.3664181,-80.153278,shuttle,,AT,Catawaba VA,6164 Newport Rd #624 Catawba,https://www.google.com/maps/place/?q=place_id:ChIJLdGc8kmmTYgRU7ZGXzG1aLU,(540) 309-8615,https://www.facebook.com/pages/Four-Pines-Hostel/215902991760062
Stanimal's 328 Hostel & Shuttle Service,37.62932,-79.4560448,shuttle,,AT,Glasgow VA,1131 Rockbridge Rd Glasgow,https://www.google.com/maps/place/?q=place_id:ChIJ9Tdnj9bTTIgREE0hNu5cx6g,(540) 480-8325,http://facebook.com/stanimalshostel
Luxury Chariots,38.0688083,-78.8892191,taxi,taxi,,Waynesboro VA,421 W Main St Waynesboro,https://www.google.com/maps/place/?q=place_id:ChIJR21Wp6Zjs4kRY3aR5Wa9KSk,(540) 448-8787,http://facebook.com/luxurychariots
Open Arms at the Edge of Town Hostel & Inn,38.6694141,-78.4329797,shuttle,,AT,Luray VA,1260 E Main St Luray,https://www.google.com/maps/place/?q=place_id:ChIJMfrfo9NNtIkRH9vMpr4-Wd8,(540) 244-5652,http://openarmsluray.com/
Bus Stop,39.3219991,-77.7323609,bus,bus stop,,Harpers Ferry WV,707 Shenandoah St Harpers Ferry,https://www.google.com/maps/place/?q=place_id:ChIJkeIHwFodtokRu5KU1eh7Qfw,(304) 535-6029,https://www.nps.gov/hafe/planyourvisit/gettingaround.htm
Harpers Ferry Shuttle Bus Stop,39.3167405,-77.7569836,bus,,,Harpers Ferry WV,171 Shoreline Dr Harpers Ferry,https://www.google.com/maps/place/?q=place_id:ChIJSbE-9W8DtokRzBiNIakPLGQ,0,https://www.nps.gov/hafe/planyourvisit/gettingaround.htm
Harpers Ferry Station,39.3245239,-77.7311061,train,train,,Harpers Ferry WV,Potomac St & Shenandoah St Harpers Ferry,https://www.google.com/maps/place/?q=place_id:ChIJtZuASlodtokRujdjqqp1HdI,(800) 872-7245,https://www.amtrak.com/stations/hfy
Rabbit Transit,40.1963596,-77.2284719,bus,,,Carlisle PA,1615 Ritner Hwy Carlisle,https://www.google.com/maps/place/?q=place_id:ChIJYWbhGUUeyYkR6mqqpoYX6kQ,(800) 632-9063,https://www.rabbittransit.org/
Carlisle Airport (N94),40.1880733,-77.1683228,airport,airport,,Carlisle PA,228 Petersburg Rd Carlisle,https://www.google.com/maps/place/?q=place_id:ChIJA4SKJcfhyIkRGCqWjkmc1uQ,(717) 243-2133,http://www.cumberlandvalleyaviation.com/
St. John's Church Pavilion,40.5870423,-76.0262271,shuttle,,AT,Port Clinton PA,Penn St Port Clinton,https://www.google.com/maps/place/?q=place_id:ChIJW3fsGwDdxYkRzIr3pyOh8RU,0,0
Slatington Airport (69N),40.7651214,-75.6061096,airport,airport,,Palmerton PA,1000 Airport Rd Slatington,https://www.google.com/maps/place/?q=place_id:ChIJQTWuvEVJxIkRG3ZLubeRs_o,(610) 767-5881,http://www.penndot.gov/TravelInPA/airports-pa/Pages/Slatington-Airport.aspx
At Your Services Transportation,40.8169733,-75.2897977,airport,airport shuttle,,Wind Gap PA,1283 Plainfield Dr Pen Argyl,https://www.google.com/maps/place/?q=place_id:ChIJP8nByCtmxIkRS7X5t2x606g,(610) 863-3325,0
Greyhound: Bus Station,40.986896,-75.152316,bus,greyhound,bus stop,Delaware Water Gap PA,1082 Foxtown Hill Rd Stroudsburg,https://www.google.com/maps/place/?q=place_id:ChIJv9wJcb6JxIkRwHoRNpRzc14,(800) 231-2222,https://www.greyhound.com/bus/stroudsburg-pa/stroudsburg-bus-station?utm_source=google_maps&utm_medium=organic
Port Jervis Dial A Bus,41.3747833,-74.6900984,bus,,,Port Jervis NY,1 Franklin St Port Jervis,https://www.google.com/maps/place/?q=place_id:ChIJ3dzDgE1Pw4kRqMW6g1vvcfo,(845) 856-7999,https://www.portjervisny.gov/dial-a-bus
Motty's Car Services,41.333912,-74.1612459,taxi,taxi,,Harriman NY,48 Future Industrial Rd # 206B Monroe,https://www.google.com/maps/place/?q=place_id:ChIJXaOc5fzWwokRvUj0nw695Fs,(845) 783-3401,http://mottyscarservices.com/
KJ Car Service 1 Inc.,41.3349751,-74.1926545,taxi,taxi,,Harriman NY,817 NY-17M Monroe,https://www.google.com/maps/place/?q=place_id:ChIJhxNa9l3DUS8RkvYhEmVCSDE,(845) 913-8307,https://www.kjcarservice.com/
Geo Taxi Service Official,41.3320475,-74.1868516,taxi,taxi,,Harriman NY,130 N Main St Monroe,https://www.google.com/maps/place/?q=place_id:ChIJ29WBJ1PXwokRG-rjSyIKKyo,(845) 717-8068,https://geotaxiserviceofficial.com/
Speedy Car Services,41.3208742,-74.1847324,taxi,taxi,,Harriman NY,581 NY-17M Monroe,https://www.google.com/maps/place/?q=place_id:ChIJbc2CHLvXwokRauMvq-CQgXc,(845) 783-4444,http://www.speedycarservice.weebly.com/
Long Distance Taxi,41.3485832,-74.1534847,taxi,taxi,,Harriman NY,266 Bakertown Rd Highland Mills,https://www.google.com/maps/place/?q=place_id:ChIJM_c5pOzWwokRdmO6I_B3YN8,(845) 217-0707,http://taxilongdistance.com/
Shortline Bus,41.3289595,-74.1892247,bus,,,Harriman NY,70 Millpond Pkwy Monroe,https://www.google.com/maps/place/?q=place_id:ChIJ6QCtELTXwokR9SuVXumua4o,(845) 782-3528,http://www.shortlinebus.com/
Dial a Bus,41.3137081,-74.1980705,bus,,,Harriman NY,91 Mine Rd Monroe,https://www.google.com/maps/place/?q=place_id:ChIJA4c1L-rXwokROOtOmQDgOLU,(845) 783-8740,0
Village Taxi,41.3209621,-74.1847006,taxi,taxi,,Harriman NY,581 NY-17M Monroe,https://www.google.com/maps/place/?q=place_id:ChIJmXFTErvXwokR1LbClEgzVDQ,(845) 783-6112,http://villagetaxiny.com/
Harriman,41.2932755,-74.139886,train,train,,Harriman NY,NY-17 Harriman,https://www.google.com/maps/place/?q=place_id:ChIJjwVsXUDXwokR-831LcauC6o,0,http://www.njtransit.com/rg/rg_servlet.srv?hdnPageAction=TrainStationLookupFrom&selStation=57
Academy Taxi of West Point,41.3748813,-73.9635466,taxi,taxi,,Fort Montgomery NY,467 Main St Highland Falls,https://www.google.com/maps/place/?q=place_id:ChIJ4zEwKtDTwokRTjeT2qe81S4,(845) 446-8294,http://www.academytaxi.homestead.com/
1-2-trips,41.2908852,-73.9202868,airport,airport shuttle,,Peekskill NY,8 N Division St Peekskill,https://www.google.com/maps/place/?q=place_id:ChIJ_7uEdzfJwokRzUN9obh7Ock,(914) 902-5989,https://www.12trips.net/
AMERICAN AIRPORT TRANSPORTATION,41.296192,-73.9221814,airport,airport shuttle,,Peekskill NY,908 Constant Ave Peekskill,https://www.google.com/maps/place/?q=place_id:ChIJmTpdul7JwokRUMPTHwPUu4A,(914) 402-6655,http://www.americanairporttrans.com/
Segundo's Taxi,41.5626144,-73.600682,taxi,taxi,,Pawling NY,11 Memorial Ave Pawling,https://www.google.com/maps/place/?q=place_id:ChIJ4VcOvehb3YkRVan51eiVg-k,(845) 264-3020,http://www.segundostaxi.com/
LQM CAR SERVICE INC,41.5256044,-73.5879132,taxi,taxi,,Pawling NY,7 Old Rte 22 Pawling,https://www.google.com/maps/place/?q=place_id:ChIJJ5yDpkOLmkQRxnb36tqRulc,(845) 855-5088,https://lqmcarservice.com/
Appalachian Trail,41.592866,-73.5880189,train,train,,Pawling NY,991 State Rte 55 Pawling,https://www.google.com/maps/place/?q=place_id:ChIJb0OptRNc3YkRCLeeWeMAcYY,0,https://new.mta.info/mta-stations/appalachian-trail
American Cab Co,42.70091499999999,-73.1087148,taxi,taxi,,North Adams MA,North Adams,https://www.google.com/maps/place/?q=place_id:ChIJJwAAAEC44IkRLCIDQAxFSuc,(413) 662-2000,0
Green Mountain Express,42.8788154,-73.1931786,bus,,,Bennington VT,215 Pleasant St Bennington,https://www.google.com/maps/place/?q=place_id:ChIJzTVuMHuW4IkRYImrTcbwZkM,(802) 447-0477,http://www.greenmtncn.org/
Catamount Motel,42.872202,-73.1959152,shuttle,,AT,Bennington VT,500 South St Bennington,https://www.google.com/maps/place/?q=place_id:ChIJr20Vbm6W4IkRe-3ggml3lIU,(802) 442-5977,http://www.catamountmotel.com/
Mountain Drivers,43.167737,-73.0473994,taxi,taxi,,Manchester Center VT,3452 Richville Rd #1242 Manchester Center,https://www.google.com/maps/place/?q=place_id:ChIJaeVdPkFf4IkRE7a0akdpLBs,(802) 772-5223,https://mtndrivers.com/
Equinox Transportation Agency LLC,43.167737,-73.0473994,taxi,taxi,,Manchester Center VT,3452 Richville Rd #2117 Manchester Center,https://www.google.com/maps/place/?q=place_id:ChIJ6VcuISlf4IkR_OMIWpz2AdY,(802) 430-9920,http://www.equinoxta.com/
Timberline Transportation LLC,43.664017,-72.790237,taxi,taxi,,Killington VT,25 Timberline Dr Ext Killington,https://www.google.com/maps/place/?q=place_id:ChIJfWqSnjsq4IkRleMlv9IpGoQ,(802) 345-6917,0
Advance Transit Inc,43.6866264,-72.3181762,taxi,,,Hanover NH,120 Billings Farm Rd Wilder,https://www.google.com/maps/place/?q=place_id:ChIJLY101iDKtEwR1Hm92c8p_vU,(802) 295-1824,http://www.advancetransit.com/
Sachem Village,43.6830215,-72.285222,bus,bus stop,,Hanover NH,Lebanon,https://www.google.com/maps/place/?q=place_id:ChIJQ2LX0v-1tEwRFIe8m9SZ-EY,0,0
Tuck Circle,43.7049808,-72.2944757,bus,bus stop,,Hanover NH,Hanover,https://www.google.com/maps/place/?q=place_id:ChIJdfZUjsHJtEwRnlAa4TEv4p8,0,0
The Notch Hostel,44.0295,-71.7055735,shuttle,,AT,North Woodstock and Lincoln NH,324 Lost River Rd North Woodstock,https://www.google.com/maps/place/?q=place_id:ChIJ0fSl-s-DtEwRGv545Ad9Ifk,(603) 348-1483,http://www.notchhostel.com/
Rangeley Delivery,44.9672176,-70.6451909,shuttle,,,Rangeley ME,17 High St Rangeley,https://www.google.com/maps/place/?q=place_id:ChIJFeBl-YQ9sUwRmk9dM2UH4ek,(207) 670-7000,https://rangeleydelivery.com/
Dads shuttle service,45.1477144,-70.4341315,shuttle,,,Stratton ME,42 Old Dead River Rd APT 10 Stratton,https://www.google.com/maps/place/?q=place_id:ChIJP5BXcJHfsEwR7Tk7C-gQkDU,(207) 670-4110,0
The Sterling Inn,45.219095,-69.987539,shuttle,,AT,Caratunk ME,1041 US-201 Caratunk,https://www.google.com/maps/place/?q=place_id:ChIJRZ-j6wr3sEwRvYNskW4QbZ4,(207) 672-3333,http://mainesterlinginn.com/
Shaw's Hiker Hostel,45.286783,-69.5029462,shuttle,,AT,Monson ME,17 Pleasant St Monson,https://www.google.com/maps/place/?q=place_id:ChIJB0x4ckFqsEwRDHbIFrxW8AI,(207) 997-3597,http://www.shawshikerhostel.com/home.html
Millinocket Municipal Airport,45.6475143,-68.6920166,airport,airport,,Millinocket ME,16 Medway Rd Exd Millinocket,https://www.google.com/maps/place/?q=place_id:ChIJZRTDyU2zukwRindqtRU225Y,(207) 723-6649,https://millinocket.org/government/public-works/airport/
100 Mile Wilderness Inn,45.6529148,-68.7111264,shuttle,,AT,Millinocket ME,96 Oxford St Millinocket,https://www.google.com/maps/place/?q=place_id:ChIJLRWYoi-zukwRcRWjFm0NFro,(207) 731-3537,https://www.100milewildernessinn.com/
Appalachian Trail Hostel & Outfitters,45.6533711,-68.7086462,shuttle,,AT,Millinocket ME,33 Penobscot Ave Millinocket,https://www.google.com/maps/place/?q=place_id:ChIJjTxAnGizukwRv5pN2MDvV8Y,(207) 723-4321,http://appalachiantrailhostel.com/
Damascus Outfitters,36.6349509,-81.7896594,outfitter,,,Damascus VA,128 W Laurel Ave Damascus,https://www.google.com/maps/place/?q=place_id:ChIJbcRzvpxBUIgR_FRA-GF1KcY,(276) 546-8411,https://www.damascusoutfitters.com/
Black Bear Resort,36.2609513,-82.1161193,hostel,,,Hampton TN,1511 Dennis Cove Rd Hampton,https://www.google.com/maps/place/?q=place_id:ChIJc-OmCx2EUIgRU-WTBDz9Heo,(423) 725-5988,http://www.blackbearresorttn.com/
Angels Rest Hiker's Haven,37.3328267,-80.7344115,hostel,,,Pearisburg VA,204 Douglas Ln Pearisburg,https://www.google.com/maps/place/?q=place_id:ChIJ21qyA5HeTYgRbr-8Q526pDM,(540) 599-5717,https://www.angelsresthikershaven.com/
The Notch Hostel,44.0295,-71.7055735,hostel,,,North Woodstock and Lincoln NH,324 Lost River Rd North Woodstock,https://www.google.com/maps/place/?q=place_id:ChIJ0fSl-s-DtEwRGv545Ad9Ifk,(603) 348-1483,http://www.notchhostel.com/
